name,address,city,state,zip_code,program_code,lat,lng,fips_county,GoogleLat,GoogleLon,GoogleCounty,GoogleZip,GoogleZip+4,zipmatch,CountyMatch,fips_county_name
"Care and Share, Inc.",110 Industrial Drive,Louisburg,NC,27549,FOODPANTRY,36.104097,-78.291694,37069,36.1039993,-78.2912646,Franklin,27549,2308,TRUE,TRUE,
Lutheran Family Services,3257 Lake Woodard Drive,Raleigh,NC,27604,GROUP HOME,35.802503,-78.587983,37183,35.80271,-78.586624,Wake,27604,3660,TRUE,TRUE,
Catholic Parish Outreach,2013 North Raleigh Blvd.,Raleigh,NC,27604,FOODPANTRY,35.803502,-78.608134,37183,35.796248,-78.6108762,Wake,27610,,FALSE,TRUE,
Christian Fellowship Homes,301 South Grace St,Rocky Mount,NC,27804,GROUP HOME,35.941437,-77.802493,37127,35.941183,-77.802256,Nash,27804,5814,TRUE,TRUE,
Clayton Area Ministries,704 E. Main Street,Clayton,NC,27520,FOODPANTRY,35.645244,-78.452026,37101,35.6451793,-78.4519359,Johnston,27520,2626,TRUE,TRUE,
Durham Crisis Response Center,Confidential,Durham,NC,NA,SHELTER,NA,NA,NA,,,,,,FALSE,,
Davie St Presbyterian,300 East Davie Street,Raleigh,NC,27601,FOODPANTRY,35.775445,-78.635069,37183,35.7752119,-78.6347673,Wake,27601,1810,TRUE,TRUE,
Durham Exchange Club,1717 Lawson Street,Durham,NC,27703,SHELTER WK,35.974353,-78.883365,37063,35.975221,-78.8777768,Durham,27703,5025,TRUE,TRUE,
Area Congregations in Ministry,634 Roxboro Rd,Oxford,NC,27565,FOODPANTRY,36.324056,-78.607626,37077,36.324437,-78.60985,Granville,27565,2635,TRUE,TRUE,
Free Will Baptist Chrildren's,7907 Buck Deans Rd.,Middlesex,NC,27557,GROUP HOME,35.815826,-78.209655,37127,35.824823,-78.207675,Nash,27557,9380,TRUE,TRUE,
Jacob House/Rachel House,809 E Mulberry Street,Goldsboro,NC,27530,GROUP HOME,35.381262,-77.9849,37191,35.381347,-77.984002,Wayne,27530,5005,TRUE,TRUE,
Inter-Faith Council,110 W. Main Street,Carrboro,NC,27510,FOODPANTRY,35.910341,-79.072512,37135,35.910428,-79.0736079,Orange,27510,,TRUE,TRUE,
Longview United Methodist,2312 Milburnie Road,Raleigh,NC,27610,FOODPANTRY,35.78931,-78.605619,37183,35.7893696,-78.6052875,Wake,27610,,TRUE,TRUE,
Masonic Home for Children,600 College Street,Oxford,NC,27565,GROUP HOME,36.318598,-78.5941,37077,36.318636,-78.5941325,Granville,27565,2717,TRUE,TRUE,
Person County Group Homes,202 North Main Street,Roxboro,NC,27573,GROUP HOME,36.39413,-78.982899,37145,36.3941821,-78.982811,Person,27573,5325,TRUE,TRUE,
Raleigh Rescue Mission,314 E. Hargett Street,Raleigh,NC,27601,SHELTER,35.778019,-78.634731,37183,35.777773,-78.634281,Wake,27601,1436,TRUE,TRUE,
St. James Methodist Church,1011 Orange Street,Newport,NC,28570,SENIOR ON,34.785574,-76.856641,37031,34.7858366,-76.8567466,Carteret,28570,9677,TRUE,TRUE,
Salvation Army-Greenville,2337 Dickinson Avenue,Greenville,NC,27834,FOODPANTRY,35.596921,-77.39951,37147,35.5967558,-77.399063,Pitt,27834,5005,TRUE,TRUE,
Salvation Army-Durham,909 Liberty Street,Durham,NC,27701,FOODPANTRY,35.992806,-78.885819,37063,35.993138,-78.885392,Durham,27701,3841,TRUE,TRUE,
Salvation Army-Henderson,355 Alexander Ave.,Henderson,NC,27536,FOODPANTRY,36.31527,-78.404645,37181,36.3152233,-78.4038764,Vance,27536,5301,TRUE,TRUE,
Shepherd's Table Soup Kitchen,121 Hillsborough Street,Raleigh,NC,27603,SOUP KITCH,35.780351,-78.640411,37183,35.780343,-78.641038,Wake,27603,,TRUE,TRUE,
Community Soup Kitchen of,307 N Railroad Street,Wilson,NC,27894,SOUP KITCH,35.646571,-78.006999,37195,35.7240993,-77.9071972,Wilson,27893,,FALSE,TRUE,
"TLC Operations, Inc.",739 Chappell Drive,Raleigh,NC,27606,GROUP HOME,35.770257,-78.68302,37183,35.7690722,-78.6836698,Wake,27606,3215,TRUE,TRUE,
Upper Room Church of God,3300 Idlewood Village Drive,Raleigh,NC,27610,FOODPANTRY,35.736534,-78.616459,37183,35.7375167,-78.6177903,Wake,27610,5969,TRUE,TRUE,
Urban Ministries of Wake,1390 Capital Blvd,Raleigh,NC,27603,FOODPANTRY,35.801725,-78.629802,37183,35.7991577,-78.6349792,Wake,27603,1118,TRUE,TRUE,
Page United Methodist Church,110 Knight Street,Aberdeen,NC,28315,FOODPANTRY,35.133302,-79.426828,37125,35.133256,-79.426553,Moore,28315,2804,TRUE,TRUE,
Loaves and Fishes Ministry,1950 New Bern Ave.,Raleigh,NC,27610,AFTER SCH,35.779617,-78.60902,37183,35.778526,-78.608773,Wake,27610,2427,TRUE,TRUE,
Philippi Church of Christ,3760 Philippi Drive,Greenville,NC,27834,FOODPANTRY,35.583162,-77.264724,37147,35.583026,-77.2649221,Pitt,27837,9523,FALSE,TRUE,
Salvation Army-Smithfield,306 N. Brightleaf Boulevard,Smithfield,NC,27577,FOODPANTRY,35.513398,-78.332839,37101,35.5112189,-78.337436,Johnston,27577,,TRUE,TRUE,
"Bethesda, Inc.",204 N. Pine Street,Aberdeen,NC,28315,GROUP HOME,35.131834,-79.424686,37125,35.132137,-79.424223,Moore,28315,2732,TRUE,TRUE,
Shiloh Baptist Church,635 College Street,Henderson,NC,27536,FOODPANTRY,36.321664,-78.403296,37181,36.3218115,-78.4033225,Vance,27536,5044,TRUE,TRUE,
St. Anthony's We Care,175 E Connecticut Ave,Southern Pines,NC,28387,FOODPANTRY,35.174523,-79.388614,37125,35.174739,-79.38843,Moore,28388,5527,FALSE,TRUE,
Community Mentor Program,297  Mizpah Road,Rockingham,NC,28345,FOODPANTRY,34.818888,-79.627073,37165,34.8976216,-79.7843295,Richmond,28379,7377,FALSE,FALSE,Scotland
Sandhills Children's Center,1280 Central Drive,Southern Pines,NC,28387,DAY CARE,35.210203,-79.392258,37125,35.2084738,-79.3927889,Moore,28387,2102,TRUE,TRUE,
Pinebluff United Methodist,275 E Philadelphia Ave,Pinebluff,NC,28373,FOODPANTRY,35.108444,-79.472802,37125,35.107201,-79.469532,Moore,28373,8305,TRUE,TRUE,
Gethsemane 7th Day,2525 Sanderford Road,Raleigh,NC,27610,FOODPANTRY,35.744892,-78.613885,37183,35.74512,-78.613103,Wake,27610,5829,TRUE,TRUE,
Coastal Women's Shelter,Confidential,New Bern,NC,NA,SHELTER,NA,NA,NA,,,,,,FALSE,,
Orange Congregations Mission,300 Millstone Drive,Hillsborough,NC,27278,FOODPANTRY,36.050792,-79.098814,37135,36.0508081,-79.0975226,Orange,27278,8777,TRUE,TRUE,
Salvation Army/Wilson,316 S. Tarboro Street,Wilson,NC,27893,FOODPANTRY,35.727598,-77.908344,37195,35.7238053,-77.9165371,Wilson,27893,3916,TRUE,TRUE,
Dorcas Ministries,187 High House Rd,Cary,NC,27511,FOODPANTRY,35.783357,-78.798666,37183,35.7819112,-78.7990378,Wake,27511,6715,TRUE,TRUE,
Hillview Christian Assembly,3217 Lemon Springs Road,Sanford,NC,27330,FOODPANTRY,35.485386,-79.221276,37105,35.440045,-79.165315,Lee,27332,6876,FALSE,TRUE,
Emmaus House/Raleigh,10 N. East Street,Raleigh,NC,27601,GROUP HOME,35.780255,-78.632179,37183,35.78066,-78.631921,Wake,27601,1110,TRUE,TRUE,
Ayden Christian Care Center,4106 B. West Avenue,Ayden,NC,28513,FOODPANTRY,34.725974,-76.738388,37031,35.4726668,-77.4164844,Pitt,28513,,TRUE,FALSE,Carteret
Apostolic Deliverance,422 E. North Street,Kinston,NC,28501,FOODPANTRY,35.262383,-77.576827,37107,35.262903,-77.574314,Lenoir,28501,5062,TRUE,TRUE,
TROSA,1820 James Street,Durham,NC,27707,GROUP HOME,35.978536,-78.92626,37063,35.979135,-78.927377,Durham,27707,2024,TRUE,TRUE,
Brooks Ave. Church Of Christ,700 Brooks Avenue,Raleigh,NC,27607,FOODPANTRY,35.79641,-78.672658,37183,35.7972041,-78.6723125,Wake,27607,4132,TRUE,TRUE,
Christian Faith Center,101 Peachtree Street,Creedmoor,NC,27522,FOODPANTRY,36.118007,-78.677307,37077,36.117197,-78.6766684,Granville,27522,,TRUE,TRUE,
Salvation Army-Rocky Mount,420 Paul Street,Rocky Mount,NC,27802,FOODPANTRY,35.928899,-77.806581,37127,35.9290614,-77.8072002,Nash,27803,3541,FALSE,TRUE,
Martha's Mission Cupboard,901 Bay Street,Morehead City,NC,28557,FOODPANTRY,34.724052,-76.713745,37031,34.7239518,-76.7140445,Carteret,28557,3827,TRUE,TRUE,
Sandhills - Moore Coalition,1500 West Indiana Ave,Southern Pines,NC,28387,FOODPANTRY,35.186101,-79.409114,37125,35.186284,-79.409895,Moore,28387,3830,TRUE,TRUE,
S.A.F.E. Lenoir County,confidential,Kinston,NC,NA,SHELTER,NA,NA,NA,,,,,,FALSE,,
Graham Ave. Group Home,1642 Graham Avenue,Henderson,NC,27536,GROUP HOME,36.326546,-78.441209,37181,36.329103,-78.4382576,Vance,27536,2914,TRUE,TRUE,
Vance-Adult Group Home,941 Hwy. 158 BYP,Henderson,NC,27536,GROUP HOME,36.336501,-78.451535,37181,36.335141,-78.457523,Vance,27536,,TRUE,TRUE,
Roanoke Ave. Group Home,264 S. Beckford Drive,Henderson,NC,27536,GROUP HOME,36.337526,-78.414365,37181,36.3371341,-78.4172206,Vance,27536,,TRUE,TRUE,
Warren County Group Home,109 Mustian Road,Warrenton,NC,27589,GROUP HOME,36.416369,-78.218084,37185,36.4163743,-78.2170087,Warren,27563,,FALSE,TRUE,
Franklin County Group Home,663 Moulton Road,Louisburg,NC,27549,GROUP HOME,36.148906,-78.279567,37069,36.149311,-78.279856,Franklin,27549,7753,TRUE,TRUE,
Oxford Group Home,605 N. Country Club Drive,Oxford,NC,27565,GROUP HOME,36.317163,-78.607168,37077,36.316626,-78.607598,Granville,27565,2848,TRUE,TRUE,
Cameron Boys' Camp / Baptist,255 Cameron Camp Rd.,Cameron,NC,28326,GROUP HOME,35.285136,-79.223249,37125,35.287491,-79.22668,Moore,28326,,TRUE,TRUE,
Wallace Church of God,1173 Bay Road,Teachey,NC,28464,FOODPANTRY,34.78201,-77.995109,37061,34.779229,-77.997572,Duplin,28464,9501,TRUE,TRUE,
Passage Home/Matthew House,1513 Branch Street,Raleigh,NC,27601,OTHER,35.763542,-78.639787,37183,35.7110858,-78.5164992,Wake,27610,,FALSE,TRUE,
Harvest House/TCCHC,1480 Maple Grove Church Road,Dunn,NC,28334,GROUP HOME,35.240385,-78.450559,37085,35.240842,-78.4515459,Sampson,28334,7692,TRUE,FALSE,Harnett
Church of God of Prophecy,628 Scott Avenue,Sanford,NC,27330,DAY CARE,35.482233,-79.158532,37105,35.482771,-79.157929,Lee,27330,4662,TRUE,TRUE,
Church of God of Prophecy,900 Simmons Street,Durham,NC,27701,FOODPANTRY,35.981908,-78.894151,37063,35.9814722,-78.8943012,Durham,27701,4338,TRUE,TRUE,
Resources For Seniors/NWSC,235 E. Holding Avenue,Wake Forest,NC,27591,ELDERLY NU,35.779063,-78.373694,37183,35.9716533,-78.5112664,Wake,27587,2927,FALSE,TRUE,
Robbins Area Christian,120 S. Middleton Street,Robbins,NC,27325,FOODPANTRY,35.433732,-79.58729,37125,35.4338817,-79.5869792,Moore,27325,8411,TRUE,TRUE,
First Assembly of God Church,3000 Summit Road,Goldsboro,NC,27534-8701,FOODPANTRY,35.371921,-77.933598,37191,35.3753659,-77.9359165,Wayne,27534,8701,FALSE,TRUE,
Christian Life Home,Confidential,,NC,NA,GROUP HOME,NA,NA,NA,,,,,,FALSE,,
New Zion Ame Zion Church,4967 Highway 705,Robbins,NC,27325,FOODPANTRY,35.454261,-79.603404,37125,35.453671,-79.601462,Moore,27325,8264,TRUE,TRUE,
Chatham Out-Reach Alliance,40 Camp Dr.,Pittsboro,NC,27312,FOODPANTRY,35.72436,-79.186719,37037,35.7240567,-79.1861827,Chatham,27312,5602,TRUE,TRUE,
New Jerusalem Pentecostal,305 Madison Street,Rocky Mount,NC,27802,FOODPANTRY,35.941563,-77.789249,37065,35.941708,-77.7888059,Edgecombe,27801,,FALSE,TRUE,
Bread Basket/Sanford Soup,140 East Chisholm Street,Sanford,NC,27331,SOUP KITCH,35.48607,-79.177905,37105,35.485863,-79.178117,Lee,27330,3650,FALSE,TRUE,
Mt. Zion UCC/Rockingham,986 Ledbetter Road,Rockingham,NC,28379,FOODPANTRY,35.002881,-79.688643,37153,35.002695,-79.688368,Richmond,28379,7708,TRUE,TRUE,
Christian Assembly Emergency,5516 N. Roxboro Road,Durham,NC,27713,FOODPANTRY,35.927259,-78.951652,37063,36.0914942,-78.9101076,Durham,27712,1424,FALSE,TRUE,
Kennedy Baptist Children's,2557 Cedar Dell Lane,Kinston,NC,28504,GROUP HOME,35.255291,-77.694694,37107,35.2547179,-77.694255,Lenoir,28504,9113,TRUE,TRUE,
Chatham County Group Homes 1,320 Martin Luther King Blvd.,Siler City,NC,27344,GROUP HOME,35.728189,-79.462308,37037,35.7281509,-79.46194,Chatham,27344,,TRUE,TRUE,
First Calvary Baptist Church,1311 Morehead Ave.,Durham,NC,27707,FOODPANTRY,35.991806,-78.918909,37063,35.991664,-78.9193478,Durham,27707,1253,TRUE,TRUE,
Flynn Home Of Goldsboro,409 North George St.,Goldsboro,NC,27530,GROUP HOME,35.388068,-77.998557,37191,35.388739,-77.998659,Wayne,27530,2723,TRUE,TRUE,
Fellowship Home,506 Cutler Street,Raleigh,NC,27603,GROUP HOME,35.774447,-78.652191,37183,35.7741026,-78.6522323,Wake,27603,2136,TRUE,TRUE,
Montgomery Churches in Action,203 Church St.,Biscoe,NC,27209,FOODPANTRY,35.358604,-79.7789,37123,35.358902,-79.778377,Montgomery,27209,,TRUE,TRUE,
Russell Memorial CME Church,703 S. Alston Avenue,Durham,NC,27701,FOODPANTRY,35.980184,-78.891357,37063,35.9799417,-78.8910421,Durham,27701,4303,TRUE,TRUE,
Mt. Zion Christian Church,3519 Fayetteville Street,Durham,NC,27707,FOODPANTRY,35.977922,-78.90043,37063,35.9563817,-78.9066987,Durham,27707,4714,TRUE,TRUE,
Belton Creek Baptist Church,4153 Hwy 96 South,Oxford,NC,27565,FOODPANTRY,36.404618,-78.685721,37077,36.281652,-78.5736634,Granville,27565,,TRUE,TRUE,
Ministries The Bread Of Life,925 Tyson Chapel Road,Farmville,NC,27828,FOODPANTRY,35.541573,-77.619474,37147,35.539433,-77.619759,Greene,27828,9681,TRUE,FALSE,Pitt
Church Of God Of Prophecy,5005 Western Blvd.,Raleigh,NC,27606,FOODPANTRY,35.786498,-78.709263,37183,35.78566,-78.709017,Wake,27606,1751,TRUE,TRUE,
Big Ruin Creek Baptist,16 Big Ruin Creek Lane,Henderson,NC,27536,FOODPANTRY,36.316137,-78.456654,37181,36.3569747,-78.4826504,Vance,27537,,FALSE,TRUE,
First Pentecostal Church,2008 W. Carver Street,Durham,NC,27705,FOODPANTRY,36.040191,-78.916747,37063,36.0404645,-78.9169327,Durham,27705,2709,TRUE,TRUE,
Greater Pentecostal F.D.,414 Rose Lane,Raleigh,NC,27610,FOODPANTRY,35.771001,-78.598497,37183,35.771456,-78.599219,Wake,27610,3645,TRUE,TRUE,
Habakkuk Outreach Center,304 East Barbee Ave,Zebulon,NC,27597,FOODPANTRY,35.821349,-78.308693,37183,35.821116,-78.3081629,Wake,27597,2814,TRUE,TRUE,
FirstHealth Hospice,251 Camp Ground Road,West End,NC,28374,OTHER,34.981252,-79.05726,37051,35.227902,-79.44831,Moore,27376,8987,FALSE,FALSE,Cumberland
Freedom House,104 New Stateside Drive,Chapel Hill,NC,27516,GROUP HOME,35.955719,-79.060214,37135,35.9558929,-79.0603042,Orange,27516,,TRUE,TRUE,
Port Human Services,204 N. Pine Street,Aberdeen,NC,28315,GROUP HOME,35.131834,-79.424686,37125,35.132137,-79.424223,Moore,28315,2732,TRUE,TRUE,
Salvation Army-New Bern,1402 Rhem Avenue,New Bern,NC,28560,FOODPANTRY,35.106342,-77.057168,37049,35.1064398,-77.0575916,Craven,28560,,TRUE,TRUE,
Elmore Blackley Fellowship,110 South Layton Avenue,Dunn,NC,28334,GROUP HOME,35.310064,-78.613668,37085,35.309565,-78.614345,Harnett,28334,4837,TRUE,TRUE,
Haven House (Wrenn),908 W. Morgan St.,Raleigh,NC,27603,SHELTER,35.78139,-78.655585,37183,35.7813025,-78.6553921,Wake,27603,1512,TRUE,TRUE,
Alliance of AIDS Services,1637 Old Louisburg Rd,Raleigh,NC,27604,FOODPANTRY,35.80269,-78.623429,37183,35.8028751,-78.6229511,Wake,27604,1376,TRUE,TRUE,
Calvary Baptist Church,1204 Lynn Road,Durham,NC,27703,FOODPANTRY,35.969972,-78.849194,37063,35.9700358,-78.850002,Durham,27703,5116,TRUE,TRUE,
Friend to Friend,CONFIDENTIAL,,NC,NA,SHELTER,NA,NA,NA,,,,,,FALSE,,
Poplar Springs Christian,6115 Old Stage Road,Raleigh,NC,27603,FOODPANTRY,35.696061,-78.653074,37183,35.6965005,-78.6528409,Wake,27603,4727,TRUE,TRUE,
West End United Methodist,4105 NC Hwy 73,West End,NC,27376,FOODPANTRY,35.24001,-79.567191,37125,35.2522043,-79.5181992,Moore,27376,,TRUE,TRUE,
The Worship Center,150 Eastman Road,Southern Pines,NC,28387,FOODPANTRY,35.190766,-79.408318,37125,35.191282,-79.410085,Moore,28387,3002,TRUE,TRUE,
Chapel of Jesus Christ,2295 North Horace Walter Rd,Raeford,NC,28376,DAY CARE,35.000312,-79.359461,37093,35.006386,-79.358705,Hoke,28376,7587,TRUE,TRUE,
Fountain of Hope,900 Wilkins Street,Rocky Mount,NC,27803,FOODPANTRY,35.927101,-77.819582,37127,35.927177,-77.819118,Nash,27803,3820,TRUE,TRUE,
Potter's Wheel Ministries,147 Faith Lane,Mount Olive,NC,28365,GROUP HOME,35.072602,-77.919863,37191,35.0725174,-77.9184831,Duplin,28365,5396,TRUE,FALSE,Wayne
Islamic Association of Raleigh,3020 Ligon St,Raleigh,NC,27607,FOODPANTRY,35.789188,-78.691146,37183,35.7894007,-78.6919989,Wake,27607,5308,TRUE,TRUE,
Alston Chapel United Holy Ch,2012 Alston Chapel Road,Pittsboro,NC,27312,FOODPANTRY,35.708409,-79.224276,37037,35.708695,-79.2245669,Chatham,27312,9016,TRUE,TRUE,
Friends of Orange County DSS,113 Mayo Street,Hillsborough,NC,27278,OTHER,36.062,-79.105359,37135,36.0601639,-79.1063264,Orange,27278,,TRUE,TRUE,
Bethesda Presbyterian Church,1002 N. Sandhills Boulevard,Aberdeen,NC,28315,FOODPANTRY,35.143192,-79.422891,37125,35.145686,-79.419754,Moore,28315,2533,TRUE,TRUE,
Resources For Seniors,323 Lake Drive,Wendell,NC,27591,ELDERLY NU,35.778599,-78.365345,37183,35.778928,-78.365492,Wake,27591,9492,TRUE,TRUE,
Resources For Seniors,1210 Dixie Trail,Raleigh,NC,27607,ELDERLY NU,35.803692,-78.676874,37183,35.8034598,-78.676036,Wake,27607,6842,TRUE,TRUE,
Apostolic Faith Church,300 Cedar Street,Rocky Mount,NC,27803,FOODPANTRY,35.91872,-77.808638,37127,35.91897,-77.808749,Nash,27803,4813,TRUE,TRUE,
Chatham County Group Homes 2,1011 West Fifth Street,Siler City,NC,27344,GROUP HOME,35.722023,-79.477635,37037,35.721924,-79.4768579,Chatham,27344,3010,TRUE,TRUE,
Southern Mission Ministries,267 Blues Bridge Rd,Hoffman,NC,28347,FOODPANTRY,35.030411,-79.540775,37153,35.030111,-79.535132,Richmond,28347,8903,TRUE,TRUE,
Outreach for Jesus,440 Battley Dairy Road,Hamlet,NC,28345,FOODPANTRY,34.876764,-79.740369,37153,34.875312,-79.743512,Richmond,28379,,FALSE,TRUE,
"CAARE, Inc.",214 Broadway Street,Durham,NC,27701,FOODPANTRY,36.000862,-78.898031,37063,36.0012349,-78.8987643,Durham,27701,2404,TRUE,TRUE,
Cotton Memorial Presbyterian,511 N. Chestnut Street,Henderson,NC,27536,FOODPANTRY,36.331311,-78.40102,37181,36.3322542,-78.3994353,Vance,27536,,TRUE,TRUE,
Housing for New Hope,1406 Holloway Street,Durham,NC,27703,GROUP HOME,35.995875,-78.897983,37063,35.9941021,-78.8761625,Durham,27703,,TRUE,TRUE,
Immanuel Temple SDA Church,2102 S Alston Avenue,Durham,NC,27701,SOUP KITCH,35.973822,-78.893912,37063,35.960641,-78.888681,Durham,27707,4412,FALSE,TRUE,
Glad Tidings Gospel Church,4422 301 South,Wilson,NC,27893,FOODPANTRY,35.722437,-77.911987,37195,35.666935,-77.961894,Wilson,27893,,TRUE,TRUE,
Calvary Temple Holy Church,215 Kitchen Avenue,Henderson,NC,27536,FOODPANTRY,36.344814,-78.394764,37181,36.344794,-78.3948806,Vance,27536,2728,TRUE,TRUE,
Southlight Supervised,1822 Gorman St. Apt D,Raleigh,NC,27610,OTHER,35.763508,-78.607179,37183,35.7742407,-78.6908482,Wake,27606,,FALSE,TRUE,
First Baptist Church,119 S. Main Street,Creedmoor,NC,27522,FOODPANTRY,36.116573,-78.686981,37077,36.1179795,-78.6867473,Granville,27522,,TRUE,TRUE,
New Life Praise Church,2398 Wicker Street,Sanford,NC,27330,FOODPANTRY,35.470469,-79.200295,37105,35.4705582,-79.2002226,Lee,27330,7697,TRUE,TRUE,
Adopted Agencies/Food Bank NC,,,,NA,OTHER,NA,NA,NA,,,,,,FALSE,,
Chatham County Group Homes 3,813 Tanglewood Drive,Siler City,NC,27344,GROUP HOME,35.731307,-79.476913,37037,35.730486,-79.478986,Chatham,27344,2327,TRUE,TRUE,
Recruiters for Christ Church,931 Red Hill Church Road,Dunn,NC,28334,FOODPANTRY,35.337985,-78.649007,37085,35.33837,-78.648934,Harnett,28334,5951,TRUE,TRUE,
Inter-Community Council,600 Tucker St.,Raleigh,NC,27603,OTHER,35.786268,-78.647266,37183,35.786283,-78.6472975,Wake,27603,1232,TRUE,TRUE,
Mt. Zion Christian Church,995 Burr Street,Henderson,NC,27536,FOODPANTRY,36.336083,-78.391916,37181,36.3360275,-78.3918515,Vance,27536,,TRUE,TRUE,
Antioch United Holy Church,2659 Railroad Street,Bell Arthur,NC,27811,FOODPANTRY,35.58965,-77.514537,37147,35.5895032,-77.5151187,Pitt,27828,,FALSE,TRUE,
The Ship Outreach & Comm Cntr,105 E. Lee St.,Raleigh,NC,27603,FOODPANTRY,35.767215,-78.638418,37183,35.76735,-78.638521,Wake,27601,2673,FALSE,TRUE,
Salvation Army Boys&Girls Club,810 N. Alston Ave.,Durham,NC,27702,AFTER SCH,35.992817,-78.88595,37063,35.9932357,-78.8857889,Durham,27701,,FALSE,TRUE,
"The Wright's Center, Inc.",513 West Raleigh Road,Rocky Mount,NC,27803,ELDERLY NU,35.935364,-77.805897,37127,35.9353781,-77.8049446,Nash,27803,,TRUE,TRUE,
New Life Community Church,3115 Crittenden Lane,Holly Springs,NC,27540,FOODPANTRY,35.681902,-78.833282,37183,35.6818734,-78.8333076,Wake,27540,,TRUE,TRUE,
Victorious Community,2116 Page Road,Durham,NC,27703,FOODPANTRY,35.934327,-78.821387,37063,35.9294025,-78.8146152,Durham,27703,8919,TRUE,TRUE,
Pee Dee Baptist Association,1219 Rockingham Rd #5,Rockingham,NC,28380,FOODPANTRY,34.934529,-79.771448,37153,34.922545,-79.7500869,Richmond,28379,,FALSE,TRUE,
Youth Life Learning Center,2519 S. Roxboro St#9,DURHAM,NC,27707,AFTER SCH,35.966547,-78.916789,37063,35.9659999,-78.917127,Durham,27707,,TRUE,TRUE,
Orange Co Head Start/Early HS,"800 Eastowne Dr., Suite 105",Chapel Hill,NC,27514,DAY CARE,35.951465,-79.005343,37135,35.9504421,-79.0060334,Orange,27514,,TRUE,TRUE,
Occoneechee Council/BSA,4637 Old Carthage Rd.,Carthage,NC,28327,SEASONAL,35.352009,-79.573871,37125,35.3421553,-79.5534724,Moore,28327,8363,TRUE,TRUE,
Durham Rescue Mission's,507 E. Knox St.,Durham,NC,27701,SHELTER,36.012479,-78.886772,37063,36.0133191,-78.8855899,Durham,27701,1438,TRUE,TRUE,
Positive Directions,Jacksontown Road,Manson,NC,27553,FOODPANTRY,36.409092,-78.327375,37185,36.4435656,-78.3171194,,27553,,TRUE,FALSE,Warren
Word of Life Christian Center,704 Franklin Street,Roxboro,NC,27573,FOODPANTRY,36.383682,-78.992998,37145,36.3835154,-78.9929005,Person,27573,5829,TRUE,TRUE,
Community Helpers Services,111-B N. First St.,Knightdale,NC,27545,FOODPANTRY,35.787766,-78.481499,37183,35.7878516,-78.4813818,Wake,27545,8094,TRUE,TRUE,
Warren Street Group Home,200 Warren Street,Warrenton,NC,27589,GROUP HOME,36.40471,-78.153635,37185,36.4046827,-78.1510999,Warren,27589,,TRUE,TRUE,
Loaves and Fishes Ministries,538 West Ridgeway Street,Warrenton,NC,27589,FOODPANTRY,36.405985,-78.163003,37185,36.4057813,-78.1632407,Warren,27589,1716,TRUE,TRUE,
Kings Gate International,158 Sierra Ave.,Hamlet,NC,28345,FOODPANTRY,34.910757,-79.71886,37153,34.9104749,-79.7189109,Richmond,28345,,TRUE,TRUE,
Haw River Baptist Church,1099 Mt. Gilead Church Road,Pittsboro,NC,27312,FOODPANTRY,35.752744,-79.086161,37037,35.756196,-79.085573,Chatham,27312,7422,TRUE,TRUE,
Urban Ministries of Durham,410 Liberty Street,Durham,NC,27701,SOUP KITCH,35.993479,-78.895467,37063,35.993452,-78.895867,Durham,27701,3408,TRUE,TRUE,
William Hawkins Yth Ministries,500 N Beckford Dr.,Henderson,NC,27536,AFTER SCH,36.337358,-78.403154,37181,36.3373437,-78.4030702,Vance,27536,,TRUE,TRUE,
White Oak Ecumenical,724 West Corbett Avenue,Swansboro,NC,28584,FOODPANTRY,34.693973,-77.131462,37133,34.695009,-77.132449,Onslow,28584,8452,TRUE,TRUE,
Restoring Hope Center,507 Warren Street,Laurinburg,NC,28352,FOODPANTRY,34.789214,-79.450026,37165,34.789248,-79.449787,Scotland,28352,2747,TRUE,TRUE,
New Foundations Group Home,199 W. Washington St.,Bethel,NC,27812,GROUP HOME,35.806582,-77.377139,37147,35.806345,-77.37741,Pitt,27812,9497,TRUE,TRUE,
Onslow Community Ministries,600 Court Street,Jacksonville,NC,28540,SOUP KITCH,34.749939,-77.431305,37133,34.7500475,-77.4310571,Onslow,28540,4752,TRUE,TRUE,
Onslow Community Ministries,600 Court Street,Jacksonville,NC,28540,SHELTER,34.749939,-77.431305,37133,34.7500475,-77.4310571,Onslow,28540,4752,TRUE,TRUE,
Pete Norris Ministries Inc.,126 W. Walnut Street, Goldsboro,NC,27533,FOODPANTRY,35.383153,-77.997602,37191,35.3833972,-77.998288,Wayne,27530,3651,FALSE,TRUE,
Abundant Life Miracle Center,1901 Garden Street,New Bern,NC,28560,MOBILE FP,35.119067,-77.05863,37049,35.119116,-77.059004,Craven,28560,3539,TRUE,TRUE,
Abundant Life Miracle Center,1303 Beaufort Street,New Bern,NC,28560,FOODPANTRY,35.119535,-77.059078,37049,35.119299,-77.059263,Craven,28560,3505,TRUE,TRUE,
Kings Church International,158 Sierra Avenue,Hamlet,NC,28345,SENIOR ON,34.910757,-79.71886,37153,34.9104749,-79.7189109,Richmond,28345,,TRUE,TRUE,
Body of Christ Ministry,6081 Lemon Springs Road,Sanford,NC,27330,FOODPANTRY,35.485386,-79.221276,37105,35.401584,-79.182975,Lee,27332,6972,FALSE,TRUE,
Urban Ministries Food Pantry,410 Liberty Street,Durham,NC,27701,FOODPANTRY,35.993479,-78.895467,37063,35.993452,-78.895867,Durham,27701,3408,TRUE,TRUE,
DD-Pentecostal Victory Temple,18074 Highway 64 West,Siler City,NC,27344,FOODPANTRY,35.733959,-79.495459,37037,35.735197,-79.495699,Chatham,27344,1633,TRUE,TRUE,
Pentecostal Victory Temple,18074 Highway 64 West,Siler City,NC,27344,OTHER,35.733959,-79.495459,37037,35.735197,-79.495699,Chatham,27344,1633,TRUE,TRUE,
White Oak Ecuminical Outreach,724 West Corbett Avenue,Swansboro,NC,28584,MOBILE FP,34.693973,-77.131462,37133,34.695009,-77.132449,Onslow,28584,8452,TRUE,TRUE,
Christian Mission Center,703 Monroe Street,Carthage,NC,28327,FOODPANTRY,35.341279,-79.408718,37125,35.341372,-79.408032,Moore,28327,,TRUE,TRUE,
Christian Mission Center,703 Monroe Street,Carthage,NC,28327,OTHER,35.341279,-79.408718,37125,35.341372,-79.408032,Moore,28327,,TRUE,TRUE,
Bread of Life/Grifton,406 Cannon Blvd.,Grifton,NC,28530,FOODPANTRY,35.373406,-77.430184,37147,35.3738962,-77.4308985,Pitt,28530,8842,TRUE,TRUE,
Bread of Life/Grifton,406 Cannon Blvd.,Grifton,NC,28530,MOBILE FP,35.373406,-77.430184,37147,35.3738962,-77.4308985,Pitt,28530,8842,TRUE,TRUE,
Living Bread Holiness Church,1116 Glenburnie Road,New Bern,NC,28561,MOBILE FP,35.136723,-77.062742,37049,35.1259587,-77.0852166,Craven,28562,,FALSE,TRUE,
"God's City of Refuge, Inc.",953 Hibbs Road,Newport,NC,28570-1838,MOBILE FP,34.749455,-76.878284,37031,34.748907,-76.875966,Carteret,28570,9127,FALSE,TRUE,
The Anointed Ones Church,4271 N. Edge Road,Ayden,NC,28513,MOBILE FP,35.468232,-77.407662,37147,35.467463,-77.4070519,Pitt,28513,7185,TRUE,TRUE,
The Anointed Ones Church,4271 N. Edge Road,Ayden,NC,28513,FOODPANTRY,35.468232,-77.407662,37147,35.467463,-77.4070519,Pitt,28513,7185,TRUE,TRUE,
Hands for Humanity CDC,1009 E. Bright Street,Kinston,NC,28501,FOODPANTRY,35.257061,-77.567243,37107,35.256864,-77.566507,Lenoir,28501,5719,TRUE,TRUE,
Hands for Humanity CDC,1009 E. Bright Street,Kinston,NC,28501,MOBILE FP,35.257061,-77.567243,37107,35.256864,-77.566507,Lenoir,28501,5719,TRUE,TRUE,
Saints Delight Church of God,327 Crawford Street,Bethel,NC,27812,FOODPANTRY,35.802557,-77.378045,37147,35.802479,-77.377123,Pitt,27812,,TRUE,TRUE,
Antioch United Holy Church,2659 Railroad Street,Bell Arthur,NC,27811,AFTER SCH,35.58965,-77.514537,37147,35.5895032,-77.5151187,Pitt,27828,,FALSE,TRUE,
Antioch United Holy Church,2659 Railroad Street,Bell Arthur,NC,27811,DAY CARE,35.58965,-77.514537,37147,35.5895032,-77.5151187,Pitt,27828,,FALSE,TRUE,
Antioch United Holy Church,2659 Railroad Street,Bell Arthur,NC,27811,MOBILE FP,35.58965,-77.514537,37147,35.5895032,-77.5151187,Pitt,27828,,FALSE,TRUE,
Koinonia Christian Center,1405 SW Greenville BLVD.,Greenville,NC,27835,MOBILE FP,35.574726,-77.418973,37147,35.570402,-77.420141,Pitt,27834,7025,FALSE,TRUE,
Koinonia Christian Center,1405 SW Greenville Blvd.,Greenville,NC,27835,FOODPANTRY,35.574726,-77.418973,37147,35.570402,-77.420141,Pitt,27834,7025,FALSE,TRUE,
Oak Grove UAFree Will Baptist,1008A Simmons St.,Durham,NC,27701,FOODPANTRY,35.981717,-78.893099,37063,35.9815866,-78.8926088,Durham,27701,4340,TRUE,TRUE,
Alpha and Omega Church,410 E. Washington St.,Kinston,NC,28501,MOBILE FP,35.266196,-77.566876,37107,35.3024571,-77.7821798,Lenoir,28551,4463,FALSE,TRUE,
Alpha and Omega Church,401 E. Washington St.,Kinston,NC,28501,FOODPANTRY,35.266196,-77.566876,37107,35.3026376,-77.7825212,Lenoir,28551,4462,FALSE,TRUE,
Trinity United Faith Center,110 S. State Street,Raleigh,NC,27601,FOODPANTRY,35.778694,-78.623669,37183,35.7785036,-78.6238304,Wake,27601,1646,TRUE,TRUE,
Richmond County Enrichment,809 Armistead Street,Rockingham,NC,28379,DIRECT DST,34.937411,-79.763472,37153,34.937499,-79.763523,Richmond,28379,,TRUE,TRUE,
Straightway Church,627 Boulevard Street,Ayden,NC,28513,FOODPANTRY,35.469302,-77.410249,37147,35.4694987,-77.4109065,Pitt,28513,7186,TRUE,TRUE,
Straightway Church,627 Boulevard Street,Ayden,NC,28513,AFTER SCH,35.469302,-77.410249,37147,35.4694987,-77.4109065,Pitt,28513,7186,TRUE,TRUE,
Word of Life International,"1600 Howard Avenue, Suite 2",Tarboro,NC,27886,FOODPANTRY,35.902718,-77.552297,37065,35.9008777,-77.5625728,Edgecombe,27886,,TRUE,TRUE,
Word of Life International,"1600 Howard Avenue, Suite 2",Tarboro,NC,27886,MOBILE FP,35.902718,-77.552297,37065,35.9008777,-77.5625728,Edgecombe,27886,,TRUE,TRUE,
Onslow Community Ministries,600 Court Street,Jacksonville,NC,28540,FOODPANTRY,34.749939,-77.431305,37133,34.7500475,-77.4310571,Onslow,28540,4752,TRUE,TRUE,
The Women's Center of Wake Co.,112 Cox Ave.,Raleigh,NC,27605,FOODPANTRY,35.785163,-78.66067,37183,35.7843469,-78.661013,Wake,27605,1817,TRUE,TRUE,
The Women's Center of Wake Co.,112 Cox Ave.,Raleigh,NC,27601,SHELTER,35.781006,-78.62809,37183,35.7843469,-78.661013,Wake,27605,1817,FALSE,TRUE,
Cary Church of God,107 Quade Drive,Cary,NC,27511,FOODPANTRY,35.817783,-78.802249,37183,35.8168768,-78.8035841,Wake,27513,7401,FALSE,TRUE,
Missions Ministries,1200 S. Caledonia Road,Laurinburg,NC,28352,FOODPANTRY,34.760867,-79.459003,37165,34.7608378,-79.4589628,Scotland,28352,4844,TRUE,TRUE,
Haven House (Outreach Center),832 Wake Forest Rd,Raleigh,NC,27604,FOODPANTRY,35.791228,-78.633454,37183,35.7917,-78.632567,Wake,27604,1220,TRUE,TRUE,
House of Prayer/Feed My People,335 Earl Franklin Drive,Hamlet,NC,28345,FOODPANTRY,34.906641,-79.688447,37153,34.90758,-79.687275,Richmond,28345,,TRUE,TRUE,
Shiloh Christian,211 Durham St,Smithfield,NC,27577-1766,FOODPANTRY,NA,NA,NA,35.504769,-78.33589,Johnston,27577,4911,FALSE,,
Shiloh Christian,211 Durham Street,Smithfield,NC,27577,SOUP KITCH,35.505669,-78.335972,37101,35.504769,-78.33589,Johnston,27577,4911,TRUE,TRUE,
First Born Comm.,Chicod Street,Grimesland,NC,27837,FOODPANTRY,35.564678,-77.191187,37147,35.5611296,-77.1933663,Pitt,27837,,TRUE,TRUE,
Friends of Orange County DSS,306 E. Revere Road,Hillsborough,NC,27278,OTHER,36.082972,-79.105873,37135,36.0829095,-79.1058753,Orange,27278,,TRUE,TRUE,
Friends of Orange County DSS,300 W. Tryon Street,Hillsborough,NC,27278,FOODPANTRY,36.077014,-79.105488,37135,36.0773173,-79.1055005,Orange,27278,,TRUE,TRUE,
Friends of Orange County DSS,300 W. Tryon St.,Hillsborough,NC,27278,FOODPANTRY,36.077014,-79.105488,37135,36.0773173,-79.1055005,Orange,27278,,TRUE,TRUE,
Friends of Orange County DSS,Cedar Grove Northern Center,Cedar Grove,NC,27278,OTHER,36.082828,-79.104421,37135,36.1306242,-80.6834561,Yadkin,27055,,FALSE,FALSE,Orange
"CAARE, Inc.",214 Broadway St.,Durham,NC,27701,SENIOR OFF,36.000862,-78.898031,37063,36.0012349,-78.8987643,Durham,27701,2404,TRUE,TRUE,
Ephesus SDA Church,1217 N. Pasteur Street,New Bern,NC,28560,FOODPANTRY,35.118776,-77.046136,37049,35.1192909,-77.047043,Craven,28560,3271,TRUE,TRUE,
Christian Faith Ministries,3110 Cameron Dr.,Sanford,NC,27330,FOODPANTRY,35.443837,-79.145964,37105,35.442706,-79.145292,Lee,27332,9605,FALSE,TRUE,
Christian Faith Ministries,507 South Third St.,Sanford,NC,27330,SHELTER,35.477025,-79.17027,37105,35.477089,-79.169995,Lee,27330,4807,TRUE,TRUE,
Christian Faith Ministries,705 Chatham St.,Sanford,NC,27330,SHELTER,35.474183,-79.1711,37105,35.474236,-79.170499,Lee,27330,4814,TRUE,TRUE,
Christian Faith Ministries,705 Chatham St.,Sanford,NC,27330,SOUP KITCH,35.474183,-79.1711,37105,35.474236,-79.170499,Lee,27330,4814,TRUE,TRUE,
"God's City of Refuge, Inc.",953 Hibbs Road,Newport,NC,28570-1838,FOODPANTRY,34.749455,-76.878284,37031,34.748907,-76.875966,Carteret,28570,9127,FALSE,TRUE,
Victory Chapel,2720 Poole Rd,Raleigh,NC,27610,MOBILE FP,35.77212,-78.597654,37183,35.771623,-78.596877,Wake,27610,2824,TRUE,TRUE,
Cameron Girls Camp,676 Hight Road,Aberdeen,NC,28315,GROUP HOME,35.10678,-79.41523,37125,35.103726,-79.409715,Moore,28315,8951,TRUE,TRUE,
Wildwood Presbyterian Church,276 Wildwood Road,Newport,NC,28570,FOODPANTRY,34.7489,-76.825446,37031,34.7491732,-76.8262612,Carteret,28570,,TRUE,TRUE,
Second Chance Mission Of Hope,309 Court Street,Jacksonville,NC,28540,FOODPANTRY,34.747128,-77.43222,37133,34.747509,-77.432308,Onslow,28540,4625,TRUE,TRUE,
Second Chance Mission Of Hope,309 Court Street,Jacksonville,NC,28540,SHELTER,34.747128,-77.43222,37133,34.747509,-77.432308,Onslow,28540,4625,TRUE,TRUE,
House of Fordham/Goldsboro,412 North William Street,Goldsboro,NC,27530,FOODPANTRY,35.386207,-77.991857,37191,35.386836,-77.991237,Wayne,27530,2802,TRUE,TRUE,
House of Fordham,500 North. William Street,Goldsboro,NC,27530,SHELTER,35.387361,-77.991439,37191,35.3873701,-77.9914113,Wayne,27530,2804,TRUE,TRUE,
Lifeline Outreach/Henderson,2014 Raleigh Road,Henderson,NC,27536,FOODPANTRY,36.302949,-78.407652,37181,36.2661776,-78.4080629,Vance,27537,,FALSE,TRUE,
Church of God of Prophecy,5005 Western Bvd,Raleigh,NC,27606,DAY CARE,35.786498,-78.709263,37183,35.78566,-78.709017,Wake,27606,1751,TRUE,TRUE,
Regeneration Development,107 NE First Street,Pinetops,NC,27864,MOBILE FP,35.791128,-77.637378,37065,35.7911564,-77.6373264,Edgecombe,27864,,TRUE,TRUE,
Regeneration Development,107 N.E. 1st Street,Pinetops,NC,27864,OTHER,35.791128,-77.637378,37065,35.7911564,-77.6373264,Edgecombe,27864,,TRUE,TRUE,
Regeneration Development,107 N.E. 1st Street,Pinetops,NC,27864,FOODPANTRY,35.791128,-77.637378,37065,35.7911564,-77.6373264,Edgecombe,27864,,TRUE,TRUE,
Salvation Army-New Bern,503 Guion Street,New Bern,NC,28563,SOUP KITCH,35.115763,-77.045337,37049,35.1154649,-77.0456072,Craven,28560,3258,FALSE,TRUE,
St. Peter's Development Center,1295 East Mumford Road,Greenville,NC,27834,AFTER SCH,35.627601,-77.35489,37147,35.628619,-77.354495,Pitt,27834,1348,TRUE,TRUE,
NEEDS Center,6742 E. Wilson Street,Fountain,NC,27829,FOODPANTRY,35.674076,-77.639701,37147,35.674469,-77.639253,Pitt,27829,,TRUE,TRUE,
NEEDS Center,6742 E. Wilson Street,Fountain,NC,27829,AFTER SCH,35.674076,-77.639701,37147,35.674469,-77.639253,Pitt,27829,,TRUE,TRUE,
"ADLA, Inc.",612 South Breazeale Avenue,Mount Olive,NC,28365,SOUP KITCH,35.18997,-78.074971,37191,35.190295,-78.076747,Wayne,28365,2606,TRUE,TRUE,
"ADLA, Inc.",612 South Breazeale Avenue,Mount Olive,NC,28365,AFTER SCH,35.18997,-78.074971,37191,35.190295,-78.076747,Wayne,28365,2606,TRUE,TRUE,
Tarboro Community Outreach,701 Cedar Lane,Tarboro,NC,27886,MOBILE FP,35.896156,-77.540154,37065,35.896478,-77.539698,Edgecombe,27886,4201,TRUE,TRUE,
Tarboro Community Outreach,701 Cedar Lane,Tarboro,NC,27886,SOUP KITCH,35.896156,-77.540154,37065,35.896478,-77.539698,Edgecombe,27886,4201,TRUE,TRUE,
Tarboro Community Outreach,701 Cedar Lane,Tarboro,NC,27886,SHELTER,35.896156,-77.540154,37065,35.896478,-77.539698,Edgecombe,27886,4201,TRUE,TRUE,
Tarboro Community Outreach,701 Cedar Lane,Tarboro,NC,27886,FOODPANTRY,35.896156,-77.540154,37065,35.896478,-77.539698,Edgecombe,27886,4201,TRUE,TRUE,
Salvation Army-Goldsboro,610 N. William Street,Goldsboro,NC,27530,FOODPANTRY,35.388772,-77.990768,37191,35.3894827,-77.9901382,Wayne,27530,2806,TRUE,TRUE,
Salvation Army-Goldsboro,610 N. William Street,Goldsboro,NC,27530,SHELTER,35.388772,-77.990768,37191,35.3894827,-77.9901382,Wayne,27530,2806,TRUE,TRUE,
Concerned Citizens Of Tillery,321 Community Center Road,Tillery,NC,27887,FOODPANTRY,35.954571,-77.938682,37127,36.259161,-77.47881,Halifax,27839,,FALSE,FALSE,Nash
Concerned Citizens Of Tillery,321 Community Center Road,Tillery,NC,27887,SOUP KITCH,35.954571,-77.938682,37127,36.259161,-77.47881,Halifax,27839,,FALSE,FALSE,Nash
Wilson County Interfaith,311 Nash Street,Wilson,NC,27893,MOBILE FP,35.724086,-77.909256,37195,35.8077481,-77.8638042,Wilson,27822,9235,FALSE,TRUE,
Wilson County Interfaith,309 Goldsboro Street,Wilson,NC,27893,SHELTER,35.715559,-77.924015,37195,35.727733,-77.9069358,Wilson,27893,,TRUE,TRUE,
Wilson County Interfaith,309 Goldsboro Street,Wilson,NC,27893,FOODPANTRY,35.715559,-77.924015,37195,35.727733,-77.9069358,Wilson,27893,,TRUE,TRUE,
Temple Emmanuel,8 Sycamore Street,Weldon,NC,27890,SOUP KITCH,36.4283,-77.594584,37083,36.4286112,-77.5941523,Halifax,27890,1856,TRUE,TRUE,
People Living in All,3181 Highway 70W,Smithfield,NC,27520,FOODPANTRY,35.5656,-78.337314,37101,35.5540078,-78.3848233,Johnston,27577,,FALSE,TRUE,
People Living in All,3181 Highway 70W,Smithfield,NC,27520,GROUP HOME,35.5656,-78.337314,37101,35.5540078,-78.3848233,Johnston,27577,,FALSE,TRUE,
Sure Promise Chritian Church,4301 Pearl Rd.,Raleigh,NC,27610,DAY CARE,35.723908,-78.561211,37183,35.724035,-78.560261,Wake,27610,6113,TRUE,TRUE,
Greater Word of Life,114 East Hamlet Street,Pinetops,NC,27864,ELDERLY NU,35.788924,-77.632003,37065,35.7910995,-77.6375192,Edgecombe,27864,,TRUE,TRUE,
Greater Word of Life,114 East Hamlet Street,Pinetops,NC,27864,FOODPANTRY,35.788924,-77.632003,37065,35.7910995,-77.6375192,Edgecombe,27864,,TRUE,TRUE,
Third Street Community Center,600 West Third Street,Greenville,NC,27834,OTHER,35.61446,-77.379646,37147,35.6153818,-77.3801223,Pitt,27834,1926,TRUE,TRUE,
Middlesex Church of God,5407 South NC 231,Middlesex,NC,27557,SENIOR OFF,35.739921,-78.256624,37127,35.846357,-78.175025,Nash,27557,8556,TRUE,TRUE,
Faith Developmental Community,655 Sussex Street,Kinston,NC,28501,AFTER SCH,34.785897,-77.434703,37133,35.259569,-77.647361,Lenoir,28504,8320,FALSE,FALSE,Onslow
Faith Developmental Community,655 Sussex Street,Kinston,NC,28501,CHILDREN,34.785897,-77.434703,37133,35.259569,-77.647361,Lenoir,28504,8320,FALSE,FALSE,Onslow
Rose Hill Free Will Baptist,6236 County Home Road,Winterville,NC,28590,BP,35.497457,-77.352888,37147,35.4936818,-77.3536428,Pitt,28590,,TRUE,TRUE,
Rose Hill Free Will Baptist,6236 County Home Road,Winterville,NC,28590,ELDERLY NU,35.497457,-77.352888,37147,35.4936818,-77.3536428,Pitt,28590,,TRUE,TRUE,
United Missionary,907 Main Street,New Bern,NC,28561,SOUP KITCH,34.900076,-77.231598,37103,35.113164,-77.048293,Craven,28560,3940,FALSE,FALSE,Jones
United Community Ministries,341 Mc Donald Street,Rocky Mount,NC,27802,FOODPANTRY,35.57489,-77.274602,37147,35.947331,-77.79767,Nash,27804,5439,FALSE,FALSE,Pitt
United Community Ministries,341 Mc Donald Street,Rocky Mount,NC,27802,SOUP KITCH,35.57489,-77.274602,37147,35.947331,-77.79767,Nash,27804,5439,FALSE,FALSE,Pitt
United Community Ministries,341 Mc Donald Street,Rocky Mount,NC,27802,SHELTER,35.57489,-77.274602,37147,35.947331,-77.79767,Nash,27804,5439,FALSE,FALSE,Pitt
"Kingdom Care, Inc.",1701 Staton Mill Road,Greenville,NC,27836,FOODPANTRY,35.685737,-77.35979,37147,35.685991,-77.359591,Pitt,27834,,FALSE,TRUE,
"Kingdom Care, Inc.",1701 Staton Mill Road,Greenville,NC,27836,SOUP KITCH,35.685737,-77.35979,37147,35.685991,-77.359591,Pitt,27834,,FALSE,TRUE,
Coats Methodist Church,288 East South Street,Coats,NC,27521,SOUP KITCH,35.403026,-78.667964,37085,35.4029822,-78.6670548,Harnett,27521,,TRUE,TRUE,
Coats Methodist Church,288 East South Street,Coats,NC,27521,FOODPANTRY,35.403026,-78.667964,37085,35.4029822,-78.6670548,Harnett,27521,,TRUE,TRUE,
New Hope Community Outreach,504 Main Street,Maysville,NC,28555,MOBILE FP,34.905008,-77.231522,37103,34.9050074,-77.2316123,Jones,28555,,TRUE,TRUE,
Better Days Ministries,2245 Garner Rd.,Raleigh,NC,27601,OTHER,35.765679,-78.631524,37183,35.748589,-78.6300399,Wake,27610,4609,FALSE,TRUE,
"Open Door Management, Inc",1675 Halltown Road,Jacksonville,NC,28546,AFTER SCH,34.77336,-77.355759,37133,34.772727,-77.354091,Onslow,28546,4565,TRUE,TRUE,
Staton Mill Road Community,1251 Fleming School Rd,Greenville,NC,27834,ELDERLY NU,35.658345,-77.391351,37147,35.658395,-77.393736,Pitt,27834,,TRUE,TRUE,
Staton Mill Road Community,1251 Fleming School Rd,Greenville,NC,27834,MOBILE FP,35.658345,-77.391351,37147,35.658395,-77.393736,Pitt,27834,,TRUE,TRUE,
Church of God,4004 Main Street,Tarboro,NC,27886,MOBILE FP,35.9266,-77.583809,37065,35.9266271,-77.5840663,Edgecombe,27886,,TRUE,TRUE,
Ebenezer Missionary Baptist,625 Raleigh Rd,Rocky Mount,NC,27802,AFTER SCH,35.935062,-77.807199,37127,35.9349786,-77.8073412,Nash,27803,2760,FALSE,TRUE,
Ebenezer Missionary Baptist,625 Raleigh Road,Rocky Mount,NC,27802,SOUP KITCH,35.935062,-77.807199,37127,35.9349786,-77.8073412,Nash,27803,2760,FALSE,TRUE,
Word of Faith Ministries Food,1288 N NC 11-903,Kenansville,NC,28349,MOBILE FP,34.623373,-78.609645,37017,35.0106033,-77.894507,Duplin,28349,,TRUE,FALSE,Bladen
Word of Faith Ministries Food,336 Cooper Street,Kenansville,NC,28349,FOODPANTRY,34.96388,-77.971615,37061,34.9638449,-77.9706043,Duplin,28349,,TRUE,TRUE,
Peletah Ministries,2305 Neuse Blvd,New Bern,NC,28560,FOODPANTRY,35.115523,-77.072652,37049,35.1154287,-77.0727514,Craven,28560,4307,TRUE,TRUE,
Peletah Ministries,2305 neuse Blvd.,New Bern,NC,28560,FOODPANTRY,35.115523,-77.072652,37049,35.1154287,-77.0727514,Craven,28560,4307,TRUE,TRUE,
Peletah Ministries,2305 Neuse Blvd,New Bern,NC,28560,AFTER SCH,35.115523,-77.072652,37049,35.1154287,-77.0727514,Craven,28560,4307,TRUE,TRUE,
Freedom Family Foundation,Dickinson Avenue,Greenville,NC,27834,MOBILE FP,35.609986,-77.3752,37147,35.5826169,-77.4176422,Pitt,,,FALSE,TRUE,
Rockingham District,12th 3rd Street,East Laurinburg,NC,28352,AFTER SCH,34.768789,-79.44735,37165,34.7703364,-79.4465965,Scotland,28352,,TRUE,TRUE,
Rey de Reyes Pentecostal,2109 Daly Waldrop Road,Kinston,NC,28501,MOBILE FP,35.293268,-77.645546,37107,35.2923339,-77.64819,Lenoir,28504,9024,FALSE,TRUE,
Freedom Family Foundation,601 West Road,Kinston,NC,28501,MOBILE FP,35.267891,-77.593914,37107,35.268335,-77.593531,Lenoir,28501,4157,TRUE,TRUE,
Hearts For Children Intl.,14705 New Light Rd,Wake Forest,NC,27587,OTHER,36.004443,-78.663162,37183,36.0184209,-78.655534,Wake,27587,8620,TRUE,TRUE,
Area Day Reporting Program for Jasper Hayes Omega Center,822 Cedar Street,New Bern,NC,28560,FOODPANTRY,35.106704,-77.072719,37049,35.112187,-77.04706,Craven,28560,,TRUE,TRUE,
Abundant Life Church,2965 Forest Hills Road,Wilson,NC,27893,SEASONAL,35.702846,-77.949651,37195,35.702368,-77.948577,Wilson,27893,9298,TRUE,TRUE,
Abundant Life Church,921 Carolina Street,Wilson,NC,27893,DAY CARE,35.720851,-77.902631,37195,35.720967,-77.901435,Wilson,27893,5413,TRUE,TRUE,
Lighthouse Christian,9856 Highway 210,Four Oaks,NC,27524,SOUP KITCH,35.509126,-78.518149,37101,35.5090541,-78.5181682,Johnston,27524,,TRUE,TRUE,
Lighthouse Christian,5058 Highway 701,Four Oaks,NC,27524,FOODPANTRY,35.375074,-78.366751,37101,35.3748843,-78.3668187,Johnston,27524,,TRUE,TRUE,
Mt. Hebron Seventh Day,700 S. Penders Street,Wilson,NC,27893,CHILDREN,36.43419,-77.609939,37083,35.714107,-77.90618,Wilson,27893,5231,TRUE,FALSE,Halifax
Mt. Hebron SDA Church,700 S. Pender Street,Wilson,NC,27893,SOUP KITCH,35.714265,-77.905811,37195,35.714107,-77.90618,Wilson,27893,5231,TRUE,TRUE,
Calvary Baptist Church,119 Bunch Road,Beaufort,NC,28516,MOBILE FP,34.733477,-76.65056,37031,34.7333139,-76.6497343,Carteret,28516,8641,TRUE,TRUE,
Calvary Baptist Church,119 Bunch Road,Beaufort,NC,28516,SOUP KITCH,34.733477,-76.65056,37031,34.7333139,-76.6497343,Carteret,28516,8641,TRUE,TRUE,
Armor of God Christian Church,"4051 S. Memorial Drive, Suite",Winterville,NC,28590,DAY CARE,35.553874,-77.405872,37147,35.554312,-77.405095,Pitt,28590,7874,TRUE,TRUE,
Armor of God Christian Church,1400 W 5th Street,Greenville,NC,27834,FOODPANTRY,35.612988,-77.388689,37147,35.613269,-77.388829,Pitt,27834,2906,TRUE,TRUE,
Armor of God Christian Church,2648 Mill Street,Winterville,NC,28590,FOODPANTRY,35.526544,-77.403433,37147,35.527105,-77.4035789,Pitt,28590,9228,TRUE,TRUE,
DD-Ministerios Guerreros De,1800 N. Roxboro Street,Durham,NC,27701,DIRECT DST,36.012895,-78.89096,37063,36.0129192,-78.890916,Durham,27701,1351,TRUE,TRUE,
Churches Outreach  Network,7406 Main Street,Bethel,NC,27812,FOODPANTRY,35.809768,-77.373347,37147,35.8079151,-77.3731076,Pitt,27812,,TRUE,TRUE,
Churches Outreach  Network,7406 Main Street,Bethel,NC,27812,ELDERLY NU,35.809768,-77.373347,37147,35.8079151,-77.3731076,Pitt,27812,,TRUE,TRUE,
Churches Outreach Network,700 Albemarle Avenue,Greenville,NC,27834,ELDERLY NU,35.609819,-77.380204,37147,35.610424,-77.3804,Pitt,27834,3105,TRUE,TRUE,
Churches Outreach Network,2921 Briery Swamp Rd.,Stokes,NC,27884,ELDERLY NU,35.712104,-77.239227,37147,35.711394,-77.240969,Pitt,27884,,TRUE,TRUE,
Churches Outreach Network,2921 Briery Swamp Rd.,Stokes,NC,27884,FOODPANTRY,35.712104,-77.239227,37147,35.711394,-77.240969,Pitt,27884,,TRUE,TRUE,
DD-Word Harvest International,2403 Lednum Street,Durham,NC,27709,DIRECT DST,36.028005,-78.909768,37063,36.028015,-78.9103,Durham,27705,3440,FALSE,TRUE,
Open Door Ministry of Faith,740 Planters Street,Rocky Mount,NC,27801,SOUP KITCH,35.928723,-77.788073,37065,35.9288669,-77.787375,Edgecombe,27801,,TRUE,TRUE,
Mount Calvary Grace & Mercy,411 Watauga Avenue,Greenville,NC,27834,SOUP KITCH,35.605831,-77.38963,37147,35.606177,-77.390516,Pitt,27834,3848,TRUE,TRUE,
Inter-Generational Community,1100 Ward Street,Greenville,NC,27834,AFTER SCH,35.613737,-77.385142,37147,35.614105,-77.3853,Pitt,27834,1860,TRUE,TRUE,
The Way of the Cross Outreach,64 Craigmont Avenue,Roanoke Rapids,NC,27870,SOUP KITCH,36.447026,-77.699311,37083,36.4469519,-77.6985249,Halifax,27870,,TRUE,TRUE,
"Project Anna, Inc",120 S. Skinner Street,Greenville,NC,27834,MOBILE FP,35.602526,-77.388011,37147,35.601931,-77.387778,Pitt,27834,3889,TRUE,TRUE,
Living Waters Ministries of,7421 US Hwy 258 South,Pinetops,NC,27864,FOODPANTRY,35.806649,-77.588915,37065,35.8067449,-77.5890054,Edgecombe,27864,,TRUE,TRUE,
"Mt. Carmel, Inc. HELPS",2542 Onslow Drive,Jacksonville,NC,28540,FOODPANTRY,34.764243,-77.418831,37133,34.7640691,-77.4183729,Onslow,28540,5610,TRUE,TRUE,
"Mt. Carmel, Inc. HELPS Shelter",405 Country Club Drive,Jacksonville,NC,28540,SHELTER,34.856518,-77.4958,37133,34.774623,-77.371542,Onslow,28546,7422,FALSE,TRUE,
"Mt. Carmel, Inc. HELPS",19 East Doris Avenue,Jacksonville,NC,28540,MOBILE FP,34.7775,-77.42822,37133,34.7780099,-77.4174673,Onslow,28540,5147,TRUE,TRUE,
"Mt. Carmel, Inc. HELPS",237-2 New River Drive,Jacksonville,NC,28546,SOUP KITCH,34.74759,-77.409865,37133,34.7476155,-77.4098466,Onslow,28540,,FALSE,TRUE,
"Mt. Carmel, Inc. HELPS",201 New Bridges Street,Jacksonville,NC,28540,OTHER,35.113698,-76.956665,37049,34.751314,-77.430525,Onslow,28540,4736,TRUE,FALSE,Craven
The Word Became Flesh,1401 Goldsboro Street,Wilson,NC,27894,GROUP HOME,35.712664,-77.924872,37195,35.7126125,-77.9248907,Wilson,27893,5820,FALSE,TRUE,
Just a Clean House,400 Raynor St.,Durham,NC,27704,GROUP HOME,35.988723,-78.873314,37063,35.988861,-78.872925,Durham,27703,3132,FALSE,TRUE,
Just a Clean House,1917 Taylor St.,Durham,NC,27704,GROUP HOME,35.988944,-78.878084,37063,35.9890616,-78.876618,Durham,27703,3148,FALSE,TRUE,
Just a Clean House,2511 Stephenson St.,Durham,NC,27704,GROUP HOME,36.022437,-78.883324,37063,36.023006,-78.883966,Durham,27704,4537,TRUE,TRUE,
Just A Clean House,1204 E. Club Blvd.,Durham,NC,27704,GROUP HOME,36.023731,-78.876933,37063,36.023141,-78.877079,Durham,27704,4618,TRUE,TRUE,
New Mt. Moriah United,4329 Anderson Avenue,Farmville,NC,27828,CHILDREN,35.585463,-77.589156,37147,35.585302,-77.591302,Pitt,27828,,TRUE,TRUE,
Abundant Life Christian Center,508 Bell Fork Road,Jacksonville,NC,28540,AFTER SCH,34.754868,-77.395544,37133,34.7535611,-77.3919427,Onslow,28540,6309,TRUE,TRUE,
Pennsylvania Home,340 East Pennsylvania Ave.,Southern Pines,NC,28387,GROUP HOME,35.171082,-79.389641,37125,35.171045,-79.389752,Moore,28387,6128,TRUE,TRUE,
Oak Drive Home,185 Oak Dr.,Southern Pines,NC,28387,GROUP HOME,35.210367,-79.388587,37125,35.210436,-79.388041,Moore,28387,2205,TRUE,TRUE,
Charlotte Street Monarch,113 Charlotte St.,Hamlet,NC,28345,GROUP HOME,34.885997,-79.698551,37153,34.8860397,-79.6985241,Richmond,28345,2703,TRUE,TRUE,
Middleton Home,340 North Middleton St.,Robbins,NC,27325,GROUP HOME,35.438058,-79.584975,37125,35.437921,-79.584613,Moore,27325,7362,TRUE,TRUE,
Green St. Home,250 South Green St.,Robbins,NC,27325,GROUP HOME,35.427511,-79.57557,37125,35.427271,-79.575667,Moore,27325,8017,TRUE,TRUE,
Pullen Memorial,1801 Hillsborough St.,Raleigh,NC,27605,SOUP KITCH,35.785402,-78.660645,37183,35.7851212,-78.6609256,Wake,27605,1664,TRUE,TRUE,
Christ Deliverance Tabernacle,413 E. Pender Street,Wilson,NC,27893,CHILDREN,35.724958,-77.903359,37195,35.725474,-77.903387,Wilson,27893,4241,TRUE,TRUE,
Community of Hope Ministries,601 St. Mary's St.,Garner,NC,27529,AFTER SCH,35.704103,-78.613901,37183,35.7031605,-78.6140467,Wake,27529,3803,TRUE,TRUE,
First Missionary Baptist,315 S. Gaines Street,Southern Pines,NC,28387,AFTER SCH,35.181802,-79.403498,37125,35.181585,-79.403668,Moore,28387,4533,TRUE,TRUE,
Salvation Army-Carteret County,111 Hodges Street,Morehead City,NC,28557,MOBILE FP,34.732365,-76.795917,37031,34.7334223,-76.7965888,Carteret,28557,,TRUE,TRUE,
First Baptist Church of,202 South Fourth Street,Smithfield,NC,27577,FOODPANTRY,35.509359,-78.345405,37101,35.509133,-78.345982,Johnston,27577,4554,TRUE,TRUE,
East Coast Church,3114 Bridges Street,Morehead City,NC,28557,AFTER SCH,34.727345,-76.745707,37031,34.727747,-76.745958,Carteret,28557,3242,TRUE,TRUE,
East Coast Church,3114 Bridges Street,Morehead City,NC,28557,AFTER SCH,34.727345,-76.745707,37031,34.727747,-76.745958,Carteret,28557,3242,TRUE,TRUE,
New Destiny Outreach,990 Cox Avenue,Rocky Mount,NC,27801,ELDERLY NU,35.949274,-77.745776,37065,35.949375,-77.747102,Edgecombe,27801,3742,TRUE,TRUE,
Pamlico County Fishes & Loaves,1149 White Farm Road,Oriental,NC,28571,MOBILE FP,35.046719,-76.682123,37137,35.045794,-76.680025,Pamlico,28571,9811,TRUE,TRUE,
SEEDS,706 Gilbert Street,Durham,NC,27701,AFTER SCH,35.995786,-78.890718,37063,35.9955449,-78.8902245,Durham,27701,3508,TRUE,TRUE,
Our Daily Bread/Ellerbe UMC,2281 Main Street,Ellerbe,NC,28338,FOODPANTRY,35.075517,-79.76186,37153,35.0736792,-79.7611714,Richmond,28338,,TRUE,TRUE,
ACTS of Woodville Baptist Chur,450 Hwy. 70,Beaufort,NC,28516,MOBILE FP,34.776633,-76.559521,37031,34.7182757,-76.6562604,Carteret,28516,,TRUE,TRUE,
God's Way Ministries,118 Booker St,Pikeville,NC,27863,FOODPANTRY,35.491124,-77.985307,37191,35.491096,-77.98231,Wayne,27863,,TRUE,TRUE,
Upper Room Church of God,3300 Idlewood Village Drive,Raleigh,NC,27610,SOUP KITCH,35.736534,-78.616459,37183,35.7375167,-78.6177903,Wake,27610,5969,TRUE,TRUE,
Upper Room COGIC,3300 Idlewood Village Drive,Raleigh,NC,27610,OTHER,35.736534,-78.616459,37183,35.7375167,-78.6177903,Wake,27610,5969,TRUE,TRUE,
Freedom House/Durham,529 Holloway Street,Durham,NC,27701,GROUP HOME,35.995875,-78.897983,37063,35.994819,-78.89106,Durham,27701,3457,TRUE,TRUE,
Freedon House/ Durham Houses,2404 Frances St,Durham,NC,27707,GROUP HOME,35.97474,-78.932,37063,35.975057,-78.932444,Durham,27707,1908,TRUE,TRUE,
Freedom House Durham,309 Crutchfield St.,Durham,NC,27704,GROUP HOME,36.038893,-78.904074,37063,36.0381208,-78.9034984,Durham,27704,2754,TRUE,TRUE,
"Operation Sunshine, Inc.",1328 Chestnut Street,Greenville,NC,27836,FOODPANTRY,35.606245,-77.384438,37147,35.606324,-77.385247,Pitt,27834,3961,FALSE,TRUE,
Laurinburg Hope in Christ,11141 Turnpike Road,Laurinburg,NC,28352,FOODPANTRY,34.77838,-79.485726,37165,34.731781,-79.500762,Scotland,28352,1213,TRUE,TRUE,
White Oak Foundation,1621 White Oak Church Rd,Apex,NC,27523,ELDERLY NU,35.779327,-78.919221,37183,35.7804829,-78.918971,Wake,27523,6066,TRUE,TRUE,
Maysville United Methodist,804 Foy Ave,Maysville,NC,28555,MOBILE FP,34.901493,-77.227223,37103,34.9000639,-77.227012,Jones,28555,7043,TRUE,TRUE,
Pentecostal Temple,2753 W. 5th Street,Greenville,NC,27834,FOODPANTRY,35.620384,-77.415937,37147,35.619549,-77.415179,Pitt,27834,7817,TRUE,TRUE,
Pentecostal Temple,2753 W. 5th Street,Greenville,NC,27834,MOBILE FP,35.620384,-77.415937,37147,35.619549,-77.415179,Pitt,27834,7817,TRUE,TRUE,
St. John's House of Refuge,923 Onslow St,Durham,NC,27705,GROUP HOME,36.011964,-78.914679,37063,36.013082,-78.914883,Durham,27705,4246,TRUE,TRUE,
St. John's House of Refuge,1307 W. Knox St.,Durham,NC,27701,FOODPANTRY,36.013311,-78.913298,37063,36.0131818,-78.91402,Durham,27705,4230,FALSE,TRUE,
St. John's House of Refuge,917 Onslow St.,Durham,NC,27705,AFTER SCH,36.011854,-78.914684,37063,36.012671,-78.914908,Durham,27705,4246,TRUE,TRUE,
Child #1 Group Home,3000 Brices Creek Road,New Bern,NC,28562,GROUP HOME,35.046362,-77.099369,37049,35.047387,-77.099352,Craven,28562,8592,TRUE,TRUE,
Tri-Area Ministry,149 East Holding Avenue,Wake Forest,NC,27587,FOODPANTRY,35.971824,-78.513106,37183,35.9720574,-78.5133183,Wake,27587,2928,TRUE,TRUE,
Monarch,335 West Connecticut Ave.,Southern Pines,NC,28387,GROUP HOME,35.178215,-79.391825,37125,35.178355,-79.391602,Moore,28387,4701,TRUE,TRUE,
Salvation Army-Raleigh,215 S. Person Street,Raleigh,NC,27601,SHELTER,35.777907,-78.634853,37183,35.7774209,-78.634506,Wake,27601,1423,TRUE,TRUE,
Cornerstone SDA Church,408 East Franklin Street,Rockingham,NC,28387,FOODPANTRY,35.340045,-79.416094,37125,34.938402,-79.769989,Richmond,28379,3607,FALSE,FALSE,Moore
Child Evangelism Fellowship,611 St. Mary's St.,Garner,NC,27529,FOODPANTRY,35.703911,-78.61388,37183,35.702899,-78.613483,Wake,27529,3803,TRUE,TRUE,
Harvest Word Ministry,320 Lot 36,Micro,NC,27576,FOODPANTRY,35.574835,-78.208143,37101,35.5156445,-78.2426507,Johnston,27569,9794,FALSE,TRUE,
Hollister Reach,64 Knight Road,Hollister,NC,27844,FOODPANTRY,36.249564,-77.91119,37083,36.251413,-77.9108059,Halifax,27844,9791,TRUE,TRUE,
NC Love in Action (LIA),238 South Tarboro Street,Wilson,NC,27893,FOODPANTRY,35.726916,-77.909396,37195,35.7243602,-77.9142679,Wilson,27893,3915,TRUE,TRUE,
Chatham County Group Homes,223 E. Watkins St.,Siler City,NC,27344,GROUP HOME,35.725448,-79.450521,37037,35.724677,-79.449882,Chatham,27344,3337,TRUE,TRUE,
St. Paul Church of Christ,4009 Lake Wilson Rd.,Wilson,NC,27896,MOBILE FP,35.775816,-77.936322,37195,35.776268,-77.936333,Wilson,27896,8942,TRUE,TRUE,
DD-St. Julia's--Chatham,124 Village Lake Rd.,Siler City,NC,27344,OTHER,35.726487,-79.479653,37037,35.7390321,-79.4689253,Chatham,27344,1821,TRUE,TRUE,
Greene County Interfaith,412 Kingold Blvd,Snow Hill,NC,28580,FOODPANTRY,35.450646,-77.681614,37079,35.4389964,-77.654548,Greene,28580,,TRUE,TRUE,
Greene County Interfaith,412 Kingold Blvd,Snow Hill,NC,28580,MOBILE FP,35.450646,-77.681614,37079,35.4389964,-77.654548,Greene,28580,,TRUE,TRUE,
Progressive Teamworks,116 Horton St.,Zebulon,NC,27597,AFTER SCH,35.822239,-78.312907,37183,35.821855,-78.314783,Wake,27597,2628,TRUE,TRUE,
Conetoe Chapel Missionary,205 Factory Street,Conetoe,NC,27819,AFTER SCH,35.816254,-77.457723,37065,35.8177201,-77.4592345,Edgecombe,27819,,TRUE,TRUE,
Immanuel Temple SDA Community,2104 S. Alston Ave.,Durham,NC,27707,AFTER SCH,35.961982,-78.887348,37063,35.961595,-78.8873909,Durham,27707,4412,TRUE,TRUE,
"Union Mission, Inc.",1310 Roanoke Avenue,Roanoke Rapids,NC,27870,FOODPANTRY,36.450977,-77.659639,37083,36.450472,-77.659585,Halifax,27870,4308,TRUE,TRUE,
"Union Mission, Inc.",1310 Roanoke Avenue,Roanoke Rapids,NC,27870,SOUP KITCH,36.450977,-77.659639,37083,36.450472,-77.659585,Halifax,27870,4308,TRUE,TRUE,
"Union Mission, Inc.",1310 Roanoke Avenue,Roanoke Rapids,NC,27870,SHELTER,36.450977,-77.659639,37083,36.450472,-77.659585,Halifax,27870,4308,TRUE,TRUE,
Southside Church of Christ,800 Elmira Ave,Durham,NC,27707,FOODPANTRY,35.963015,-78.90084,37063,35.9625699,-78.9006098,Durham,27707,4825,TRUE,TRUE,
"RHA Health Services, Inc.",126 Robinhood Lane,Aberdeen,NC,28315,GROUP HOME,35.13472,-79.475184,37125,35.135686,-79.477954,Moore,28315,4447,TRUE,TRUE,
Generations ADS,112 N. Main St.,Roxboro,NC,27573,ADULT DAY,36.39414,-78.983008,37145,36.393778,-78.983087,Person,27573,5535,TRUE,TRUE,
Person County Group Homes,202 N Main St,Roxboro,NC,27573,GROUP HOME,36.444333,-78.570708,37077,36.3941821,-78.982811,Person,27573,5325,TRUE,FALSE,Granville
St. James Methodist Church,1011 Orange Street,Newport,NC,28570,FOODPANTRY,34.785574,-76.856641,37031,34.7858366,-76.8567466,Carteret,28570,9677,TRUE,TRUE,
St. Marks'/La Guadalupana,106 S. Reid Street,Wilson,NC,27893,MOBILE FP,35.717762,-77.900579,37195,35.717672,-77.901712,Wilson,27893,6230,TRUE,TRUE,
Universal Outreach,4913 Universal Drive,Wake Forest,NC,27591,FOODPANTRY,35.779195,-78.374397,37183,35.8884789,-78.480973,Wake,27587,6357,FALSE,TRUE,
Dillard Academy,504 West Elm Street,Goldsboro,NC,27530,FOODPANTRY,35.379522,-78.005188,37191,35.3788786,-78.0053682,Wayne,27530,5712,TRUE,TRUE,
Dillard Academy,504 West Elm Street,Goldsboro,NC,27530,OTHER,35.379522,-78.005188,37191,35.3788786,-78.0053682,Wayne,27530,5712,TRUE,TRUE,
Religious Community Services,919 George Street,New Bern,NC,28560,SOUP KITCH,35.114863,-77.04468,37049,35.1150775,-77.0453703,Craven,28560,4059,TRUE,TRUE,
Religious Community Services,919 George Street,New Bern,NC,28560,FOODPANTRY,35.114863,-77.04468,37049,35.1150775,-77.0453703,Craven,28560,4059,TRUE,TRUE,
Word of God Fellowship,3000 Rock Quary Road,Raleigh,NC,27610,AFTER SCH,35.747312,-78.5993,37183,35.746205,-78.597577,Wake,27610,5110,TRUE,TRUE,
Word of God Fellowship,3000 Rock Quary Road,Raleigh,NC,27610,FOODPANTRY,35.747312,-78.5993,37183,35.746205,-78.597577,Wake,27610,5110,TRUE,TRUE,
DD-Grace and Peace Tabernacle,600 East Washington Street,Mebane,NC,27302,FOODPANTRY,36.083589,-79.21864,37001,36.0938319,-79.2602429,,27302,,TRUE,FALSE,Alamance
Richlands Community Outreach,9103 Richalnds Highway,Richlands,NC,28574,MOBILE FP,34.903097,-77.554544,37133,34.9047132,-77.5577925,Onslow,28574,,TRUE,TRUE,
Salvation Army-Jacksonville,535 Bell Fork Road,Jacksonville,NC,28546,FOODPANTRY,34.754271,-77.394144,37133,34.754335,-77.391161,Onslow,28540,6314,FALSE,TRUE,
Seed Time & Harvest Fellowship,804 Berwyn Avenue,Durham,NC,27704,AFTER SCH,36.033623,-78.879398,37063,36.032964,-78.880457,Durham,27704,3338,TRUE,TRUE,
Salvation Army-Raleigh,1863 Capital Blvd,Raleigh,NC,27604,FOODPANTRY,35.806237,-78.616422,37183,35.8071186,-78.616592,Wake,27604,2144,TRUE,TRUE,
Salvation Army-Raleigh,215 S. Person Street,Raleigh,NC,27601,SOUP KITCH,35.777907,-78.634853,37183,35.7774209,-78.634506,Wake,27601,1423,TRUE,TRUE,
Word Changing Missions,5629 Oleander Dr,Wilmington,NC,28405,FOODPANTRY,34.20887,-77.852282,37129,34.2094525,-77.8516564,New Hanover,28403,,FALSE,TRUE,
NABVETS,1122 N 4th Street,Wilmington,NC,28401,FOODPANTRY,34.248705,-77.946325,37129,34.2489111,-77.9461465,New Hanover,28401,3016,TRUE,TRUE,
Pinney's From Heaven,12 St. Joseph St #54,Carolina Beach,NC,28428,MOBILE FP,34.040437,-77.893956,37129,34.0441834,-77.8931823,New Hanover,28428,,TRUE,TRUE,
House of Mercy Outreach,4702 South College Road,Wilmington,NC,28412,FOODPANTRY,34.156164,-77.892147,37129,34.155282,-77.894097,New Hanover,28412,2025,TRUE,TRUE,
Mt. Olive AME Church - Helping,1001 South 7th Street,Wilmington,NC,28401,FOODPANTRY,34.223382,-77.939172,37129,34.223229,-77.938781,New Hanover,28401,5727,TRUE,TRUE,
YWCA - Grandparents Support,125 South Third Street,Wilmington,NC,28401,OTHER,34.233646,-77.945701,37129,34.2333425,-77.9454112,New Hanover,28401,,TRUE,TRUE,
Facts of Life Church of the,24678 Peacock Road,Tabor City,NC,28463,FOODPANTRY,34.112382,-78.806318,37047,34.11221,-78.806786,Columbus,28463,7094,TRUE,TRUE,
St. Joy Holiness Church,19 South 16th Street,Wilmington,NC,28401,FOODPANTRY,34.236742,-77.928819,37129,34.2362428,-77.9287104,New Hanover,28401,,TRUE,TRUE,
Vigilant Hope,408 Willard Street,Wilmington,NC,28401,SOUP KITCH,34.215587,-77.941828,37129,34.215313,-77.941325,New Hanover,28401,6244,TRUE,TRUE,
Blue Ribbon Commission,507 McRae Street,Wilmington,NC,28401,AFTER SCH,34.241826,-77.939929,37129,34.2422867,-77.9398311,New Hanover,28401,3645,TRUE,TRUE,
Davie St Presbyterian,300 East Davie Street,Raleigh,NC,27601,FOODPANTRY,35.775445,-78.635069,37183,35.7752119,-78.6347673,Wake,27601,1810,TRUE,TRUE,
Durham Rescue Mission,1201 East Main Street,Durham,NC,27703-1858,SHELTER,35.986812,-78.886742,37063,35.9877589,-78.8870414,Durham,27701,4028,FALSE,TRUE,
Durham Rescue Mission,1201 East Main Street,Durham,NC,27703-1858,FOODPANTRY,35.986812,-78.886742,37063,35.9877589,-78.8870414,Durham,27701,4028,FALSE,TRUE,
Area Congregations in Ministry,634 Roxboro Rd,Oxford,NC,27565,BP,36.324056,-78.607626,37077,36.324437,-78.60985,Granville,27565,2635,TRUE,TRUE,
ACTS/Henderson,305 S. Chestnut St.,Henderson,NC,27536,FOODPANTRY,36.327525,-78.406433,37181,36.3275999,-78.4064951,Vance,27536,4224,TRUE,TRUE,
ACTS/Henderson,305 S. Chestnut,Henderson,NC,27536,SOUP KITCH,36.327525,-78.406433,37181,36.3275999,-78.4064951,Vance,27536,4224,TRUE,TRUE,
"RHA Health Services, Inc",15235 Airport Road,Maxton,NC,28364,GROUP HOME,34.780066,-79.371731,37165,34.775912,-79.371489,Scotland,28364,,TRUE,TRUE,
Bogue Community Citizens,1036 Jockey Road,Hallsboro,NC,28442,FOODPANTRY,34.312939,-78.609136,37047,34.312075,-78.608685,Columbus,28442,,TRUE,TRUE,
Town Creek Vision Corporation,215 Sunnybrook Way SE,Leland,NC,28451,FOODPANTRY,NA,NA,NA,34.173494,-78.083275,Brunswick,28451,7361,TRUE,,
Cape Fear Christian Church,811 N. College Rd.,Wilmington,NC,28405,FOODPANTRY,34.261308,-77.869901,37129,34.2606372,-77.8711168,New Hanover,28405,2533,TRUE,TRUE,
"We Care 4 You Foundation, Inc.",8910 HWY 117 N.,Watha,NC,28478,FOODPANTRY,34.690941,-77.977778,37141,34.673506,-77.939114,Pender,28478,8460,TRUE,TRUE,
Southeastern Church of God,200 W. Lewis Street,Tabor City,NC,28463,FOODPANTRY,34.147819,-78.879182,37047,34.147505,-78.879572,Columbus,28463,1906,TRUE,TRUE,
Southeastern Church of God,200 W. Lewis St.,Tabor City,NC,28463,SOUP KITCH,34.147819,-78.879182,37047,34.147505,-78.879572,Columbus,28463,1906,TRUE,TRUE,
YWCA of the Lower Cape Fear,2815 South College Road,Wilmington,NC,28412,AFTER SCH,34.194722,-77.889065,37129,34.1952503,-77.8884796,New Hanover,28409,,FALSE,TRUE,
Shoreline Food Pantry,4198 Vanessa Dr,Southport,NC,28461,FOODPANTRY,33.928757,-78.067981,37019,33.929075,-78.062327,Brunswick,28461,9031,TRUE,TRUE,
Greater Restoration,3440 JB White HWY South,Whiteville,NC,28472,FOODPANTRY,33.923614,-78.327171,37019,34.296192,-78.72798,Columbus,28472,8678,TRUE,FALSE,Brunswick
Western Prong Baptist Church,167 Peacock Rd,Whiteville,NC,28472,FOODPANTRY,34.430019,-78.733835,37047,34.428705,-78.733966,Columbus,28472,9706,TRUE,TRUE,
Whiteville Community Outreach,315 W.  Virquil Street,Whiteville,NC,28472,FOODPANTRY,NA,NA,NA,34.324409,-78.708971,Columbus,28472,3922,TRUE,,
First Baptist Church of Leland,517 Village Rd,Leland,NC,28451,FOODPANTRY,34.255159,-78.042583,37019,34.2405081,-78.0124673,Brunswick,28451,,TRUE,TRUE,
St. Mary Missionary Baptist,6401 Ocean Hwy East,Winnabow,NC,28479,FOODPANTRY,34.14466,-78.093843,37019,34.144445,-78.0944279,Brunswick,28479,5557,TRUE,TRUE,
Blake's Chapel,88 Blake's Chapel Road,Hampstead,NC,28443,FOODPANTRY,34.431531,-77.629136,37141,34.431577,-77.629912,Pender,28443,2786,TRUE,TRUE,
Union Missionary Baptist,2711 Princess Place Dr,Wilmington,NC,28405,FOODPANTRY,34.24383,-77.912072,37129,34.244798,-77.911083,New Hanover,28405,3001,TRUE,TRUE,
Liberty Ministries,7957 Market Street,Wilmington,NC,28411,FOODPANTRY,34.290637,-77.800598,37129,34.290203,-77.802863,New Hanover,28411,9383,TRUE,TRUE,
5th Avenue Methodist Church,409 S 5th St,Wilmington,NC,28401,BP,34.230655,-77.942607,37129,34.230192,-77.942206,New Hanover,28401,5109,TRUE,TRUE,
Holy Grounds Food Pantry,2831 Carolina Beach Road,Wilmington,NC,28412,FOODPANTRY,34.187242,-77.931935,37129,34.1866799,-77.9308204,New Hanover,28412,1811,TRUE,TRUE,
"Philippians 3: Ministries, Inc",20 N. 4th Street,Wilmington,NC,28401,OTHER,34.235882,-77.944641,37129,34.236415,-77.944379,New Hanover,28401,,TRUE,TRUE,
Bread for Life,500 Kenwood Ave,Wilmington,NC,28405,ELDERLY NU,34.244726,-77.91766,37129,34.2452007,-77.9173582,New Hanover,28405,2832,TRUE,TRUE,
Bread for Life,Little John Circle,WIlmington,NC,28401,FOODPANTRY,34.209576,-77.928276,37129,34.2108454,-77.92743,New Hanover,28401,,TRUE,TRUE,
Bread for Life,4901 Amy Drive,Wilmington,NC,28403,FOODPANTRY,34.236722,-77.883387,37129,34.2371903,-77.882311,New Hanover,28403,,TRUE,TRUE,
First Baptist Church of Lake,300 East Sam Potts Hwy.,Lake Waccamaw,NC,28450,FOODPANTRY,34.322002,-78.51374,37047,34.3220545,-78.5192598,Columbus,28450,,TRUE,TRUE,
Temple of Israel - Weekend,922 Market Street,Wilmington,NC,28401,ELDERLY NU,34.236099,-77.937812,37129,34.235916,-77.937302,New Hanover,28401,,TRUE,TRUE,
Men and Women United for,25485 Andrew Jackson Hwy E,Delco,NC,28436,FOODPANTRY,34.316616,-78.236154,37047,34.316913,-78.227838,Columbus,28436,9357,TRUE,TRUE,
Ambassadors for Christ Called,4513 Franklin Ave,Wilmington,NC,28403,FOODPANTRY,34.238432,-77.888957,37129,34.2384849,-77.8882898,New Hanover,28403,,TRUE,TRUE,
Salvation and Deliverance,4402 Northwest Road,Leland,NC,28451,FOODPANTRY,34.244802,-78.120908,37019,34.301231,-78.147437,Brunswick,28451,8831,TRUE,TRUE,
Faith Harbor UMC,12395 Hwy 50,Hampstead,NC,28443,SOUP KITCH,34.464396,-77.56097,37141,34.464414,-77.561279,Pender,28443,2947,TRUE,TRUE,
Faith Harbor UMC,12395 Hwy 50,Hampstead,NC,28443,FOODPANTRY,34.464396,-77.56097,37141,34.464414,-77.561279,Pender,28443,2947,TRUE,TRUE,
St. Jude's Metropolitan,19 N. 26th St.,Wilmington,NC,28405,FOODPANTRY,34.238999,-77.913498,37129,34.2395564,-77.9138517,New Hanover,28405,,TRUE,TRUE,
"TAFF, Inc.",1411 HWY 117,Burgaw,NC,28425,FOODPANTRY,34.57226,-77.922843,37141,34.5339079,-77.906877,Pender,28425,7756,TRUE,TRUE,
Community Boys & Girls Club,901 Nixon Street,Wilmington,NC,28401,AFTER SCH,34.249617,-77.939656,37129,34.2499088,-77.9392822,New Hanover,28401,2965,TRUE,TRUE,
Countywide CDC,1183 Old Mill Road,Navassa,NC,28451,FOODPANTRY,34.245207,-78.000979,37019,34.2572441,-78.0038136,Brunswick,28451,,TRUE,TRUE,
"Kids Making It, Inc.",617 Castle Street,Wilmington,NC,28401,AFTER SCH,34.228427,-77.940902,37129,34.228647,-77.940046,New Hanover,28401,5223,TRUE,TRUE,
Step up For Soldiers,2412 Infantry Road,Wilmington,NC,28405-8889,FOODPANTRY,34.262924,-77.893563,37129,34.2629882,-77.8928651,New Hanover,28405,8889,FALSE,TRUE,
CIS Wire Program,20 N. 4th Street,Wilmington,NC,28401,AFTER SCH,34.235882,-77.944641,37129,34.236415,-77.944379,New Hanover,28401,,TRUE,TRUE,
Houston Moore Afterschool,1601 South 13th Street,Wilmington,NC,28401,AFTER SCH,34.216836,-77.930486,37129,34.217017,-77.929111,New Hanover,28401,6467,TRUE,TRUE,
First in Families/The ARC of,5041 New Centre Dr Suite 109,Wilmington,NC,28403,ADULT DAY,34.239099,-77.876777,37129,34.2397366,-77.8761463,New Hanover,28403,,TRUE,TRUE,
First in Families/The ARC,5041 New Center Drive,Wilmington,NC,28403,FOODPANTRY,34.239099,-77.876777,37129,34.253,-77.929816,New Hanover,28401,,FALSE,TRUE,
Good Samaritan,116 Bryan Road,Wilmington,NC,28412,FOODPANTRY,34.171006,-77.94605,37129,34.170719,-77.945447,New Hanover,28412,7034,TRUE,TRUE,
First Baptist Church,409 N. Lake Park Blvd.,Carolina Beach,NC,28428,SOUP KITCH,34.03702,-77.893807,37129,34.037262,-77.894306,New Hanover,28428,4805,TRUE,TRUE,
Inspirational House of Praise,1005 Village Road,Leland,NC,28451,FOODPANTRY,34.255223,-78.042544,37019,34.247995,-78.027547,Brunswick,28451,8457,TRUE,TRUE,
Victory Independent,516 Varnamtown Rd.,Supply,NC,28462,FOODPANTRY,33.941169,-78.248972,37019,33.941508,-78.251361,Brunswick,28462,6020,TRUE,TRUE,
The Lord's Church,1502 East Lake Shore Drive,Wilmington,NC,28401,FOODPANTRY,34.214374,-77.941103,37129,34.216508,-77.941461,New Hanover,28401,6346,TRUE,TRUE,
Faith Building Missions,7025 Beach Drive,Ocean Isle Beach,NC,28469,SOUP KITCH,33.898554,-78.47644,37019,33.897994,-78.476242,Brunswick,28469,5701,TRUE,TRUE,
Living Word Church,6374 Chadbourn Hwy,Chadbourn,NC,28431,FOODPANTRY,34.333278,-78.828088,37047,34.326809,-78.8140729,Columbus,28431,,TRUE,TRUE,
Nourish NC,601 Greenfield Street,Wilmington,NC,28401,BP,34.216946,-77.939724,37129,34.2171802,-77.9395869,New Hanover,28401,7803,TRUE,TRUE,
Ashley Center,2002 Colwell Street,Wilmington,NC,28403,GROUP HOME,34.227816,-77.922149,37129,34.227459,-77.922569,New Hanover,28403,2308,TRUE,TRUE,
Burgaw PFWB,416 West Bridger Street,Burgaw,NC,28425,FOODPANTRY,33.977894,-78.388958,37019,34.5516223,-77.9342347,Pender,28425,,TRUE,FALSE,Brunswick
Bugaw PFWB,416 West Bridgers Street,Burgaw,NC,28425,FOODPANTRY,34.551191,-77.933404,37141,34.5516223,-77.9342347,Pender,28425,,TRUE,TRUE,
Trinity Missionary Baptist,883 Holden Beach Road,Shallotte,NC,28470,FOODPANTRY,33.972706,-78.337034,37019,33.973864,-78.338298,Brunswick,28470,,TRUE,TRUE,
Believers Home Fellowship,212 Faith Circle,Tabor City,NC,28463,FOODPANTRY,34.268285,-77.81009,37129,,,Columbus,,,FALSE,FALSE,New Hanover
Straightway Ministries,3705 US Hwy 421 N,Wilmington,NC,28401,FOODPANTRY,34.305314,-77.979359,37129,34.294065,-77.973908,New Hanover,28401,9023,TRUE,TRUE,
Straightway Ministries,3705 US Hwy 421 N,Wilmington,NC,28401,AFTER SCH,34.305314,-77.979359,37129,34.294065,-77.973908,New Hanover,28401,9023,TRUE,TRUE,
Sonrise Independent Baptist,8375 River Road,Southport,NC,28461,FOODPANTRY,33.92387,-78.006413,37019,33.954421,-78.029613,Brunswick,28461,8909,TRUE,TRUE,
Word of Life Outreach,10241 Blackwell Road,Leland,NC,28451,AFTER SCH,34.227744,-77.998941,37019,34.228726,-77.99608,Brunswick,28451,8515,TRUE,TRUE,
Farmers Union Developmental,903 Farmers Union Road,Clarkton,NC,28433,DAY CARE,34.412274,-78.62438,37017,34.411905,-78.625064,Columbus,28433,7920,TRUE,FALSE,Bladen
Love of Christ Ministries,4308 Bus 17 N.E.,Bolivia,NC,28422,FOODPANTRY,34.077633,-78.140588,37019,34.076008,-78.141055,Brunswick,28422,9017,TRUE,TRUE,
The Rock of Wilmington,3233 Burnt Mill Dr.,wilmington,NC,28403,FOODPANTRY,34.230498,-77.902379,37129,34.231159,-77.902786,New Hanover,28403,2676,TRUE,TRUE,
Wilmington Family YMCA,2710 Market Street,Wilmington,NC,28403,AFTER SCH,34.238976,-77.911857,37129,34.2378343,-77.9110702,New Hanover,28403,1218,TRUE,TRUE,
Wilmington Family YMCA @ Parsley Elementary,3518 Masonboro Loop Rd,Wilmington,NC,28409,AFTER SCH,34.235869,-78.008498,37019,34.1797583,-77.8629394,New Hanover,28409,,TRUE,FALSE,Brunswick
Wilmington Family YMCA @ Pine Valley Elementary,440 John S Mosby Dr,Wilmington,NC,28412,AFTER SCH,34.197144,-77.89993,37129,34.178917,-77.9006239,New Hanover,28412,7100,TRUE,TRUE,
Wilmington Family YMCA @ Castle Hayne Elementary,3925 Roger Haynes Dr,Castle Hayne,NC,28429,AFTER SCH,34.31733,-77.922418,37129,34.3507897,-77.8915525,New Hanover,28429,5681,TRUE,TRUE,
St Joseph Parish Outreach,1303 Hwy 117 South,Burgaw,NC,28425,FOODPANTRY,34.536464,-77.907419,37141,34.5352613,-77.9073875,Pender,28425,,TRUE,TRUE,
Weekend Meals on Wheels,5102 Oleander Drive,Wilmington,NC,28403,SENIOR OFF,34.208438,-77.869254,37129,34.207474,-77.869173,New Hanover,28403,7017,TRUE,TRUE,
Harvest Table,211 East Columbus Street,Whiteville,NC,28472,FOODPANTRY,34.326443,-78.700821,37047,34.3263982,-78.7000173,Columbus,28472,4217,TRUE,TRUE,
First Fruit Ministries,2750 Vance Street,Wilmington,NC,28412,FOODPANTRY,34.188714,-77.940408,37129,34.1883399,-77.940792,New Hanover,28412,6251,TRUE,TRUE,
First Fruit Ministries,2750 Vance Street,Wilmington,NC,28412,SOUP KITCH,34.188714,-77.940408,37129,34.1883399,-77.940792,New Hanover,28412,6251,TRUE,TRUE,
First Fruit Ministries,2750 Vance Street,Wilmington,NC,28412,SHELTER,34.188714,-77.940408,37129,34.1883399,-77.940792,New Hanover,28412,6251,TRUE,TRUE,
"Pender Adult Services, Inc.",901 S. Walker Street,Burgaw,NC,28425,ELDERLY NU,34.542096,-77.910491,37141,34.542215,-77.911841,Pender,28425,,TRUE,TRUE,
Brunswick Islands Baptist,1672 Mt. Pisgah Road,Supply,NC,28462,FOODPANTRY,33.951723,-78.310809,37019,33.952292,-78.308181,Brunswick,28462,5404,TRUE,TRUE,
"LINC, Inc.",222 Division Drive,Wilmington,NC,28401,GROUP HOME,34.263499,-77.926071,37129,34.263543,-77.9260793,New Hanover,28401,8825,TRUE,TRUE,
LITE (Linc's Initiative,801 Princess St.,Wilmington,NC,28401,AFTER SCH,34.237221,-77.9395,37129,34.2374292,-77.9392022,New Hanover,28401,4228,TRUE,TRUE,
Livingstones Tabernacle,127 Sloop Point Road,Hampstead,NC,28443,FOODPANTRY,34.432816,-77.629262,37141,34.4330283,-77.6293715,Pender,28443,2787,TRUE,TRUE,
South Brunswick Inter-Church,4807 Main Street,Shallotte,NC,28459,FOODPANTRY,33.965192,-78.395333,37019,33.9724999,-78.385431,Brunswick,28470,1864,FALSE,TRUE,
Wrightsboro United Methodist,3300 North Kerr Avenue,Wilmington,NC,28405,FOODPANTRY,34.288939,-77.913036,37129,34.2895589,-77.913768,New Hanover,28405,,TRUE,TRUE,
Trinity Tabernacle Full,1029 George II Highway,Winnabow,NC,28479,FOODPANTRY,34.096486,-78.088379,37019,34.0980103,-78.0870428,Brunswick,28479,,TRUE,TRUE,
Southport Oak Island InterChur,249 West Boiling Spring Road,Boiling Spring Lakes,NC,28461,FOODPANTRY,34.028364,-78.068428,37019,34.0265507,-78.0700868,Brunswick,28461,,TRUE,TRUE,
Myrtle Grove SDA Church,7547 Carolina Beach Road,Wilmington,NC,28412,FOODPANTRY,34.06762,-77.897509,37129,34.066797,-77.89659,New Hanover,28412,3215,TRUE,TRUE,
Mother Hubbard's Cupboard,221 N. 2nd St.,Wilmington,NC,28401,FOODPANTRY,34.2379,-77.94778,37129,34.2383558,-77.9480987,New Hanover,28401,,TRUE,TRUE,
Salvation Army-Wilmington,820 North 2nd Street,Wilmington,NC,28401,SHELTER,34.245415,-77.948629,37129,34.2449534,-77.9482656,New Hanover,28401,5078,TRUE,TRUE,
Salvation Army-Wilmington,820 North 2nd Street,Wilmington,NC,28401,SOUP KITCH,34.245415,-77.948629,37129,34.2449534,-77.9482656,New Hanover,28401,5078,TRUE,TRUE,
Salvation Army - Wilmington,820 N. 2nd Street,Wilmington,NC,28401,FOODPANTRY,34.245415,-77.948629,37129,34.2449534,-77.9482656,New Hanover,28401,5078,TRUE,TRUE,
Stepping Stone Manor,416 Walnut Street,Wilmington,NC,28401,GROUP HOME,34.240153,-77.945159,37129,34.240071,-77.944262,New Hanover,28401,4033,TRUE,TRUE,
Coastal Horizons,615 Shipyard Blvd.,Wilmington,NC,28412,SHELTER,34.1918,-77.928865,37129,34.193669,-77.932642,New Hanover,28412,6431,TRUE,TRUE,
St. Brendans Church,5101 Ocean Hwy W.,Shallotte,NC,28470,FOODPANTRY,33.95767,-78.428089,37019,33.9557644,-78.4318102,Brunswick,28470,4013,TRUE,TRUE,
Brunswick Family Assistance,4600-8 Main Street,Shallotte,NC,28469,FOODPANTRY,33.897439,-78.394127,37019,33.9797521,-78.3789831,Brunswick,28459,,FALSE,TRUE,
Tileston Outreach,412 Ann Street,Wilmington,NC,28401,FOODPANTRY,34.23184,-77.94411,37129,34.2322072,-77.9433497,New Hanover,28401,4663,TRUE,TRUE,
Diabetic Services,412 Anne  Street,Wilmington,NC,28401,OTHER,34.23184,-77.94411,37129,34.2322072,-77.9433497,New Hanover,28401,4663,TRUE,TRUE,
Federal Point Help Center @ Carolina Beach Recreation,1121 N Lake Park Blvd # B,Carolina Beach,NC,28428,FOODPANTRY,34.033516,-77.89254,37129,34.0451832,-77.8992898,New Hanover,28428,4130,TRUE,TRUE,
Brigade Boys and Girl's Club,2759 Vance Street,Wilmington,NC,28412,AFTER SCH,34.188488,-77.940257,37129,34.1887203,-77.9392652,New Hanover,28412,6252,TRUE,TRUE,
Brigade Boys & Girls Club @ Riley's Creek Baptist Church,19845 NC Hwy 210,Rocky Point,NC,28457,AFTER SCH,34.407271,-78.748026,37047,34.434875,-77.980492,Pender,28457,9055,TRUE,FALSE,Columbus
Brigade Boys & Girls Club @ Mission Baptist Church,607 S Walker St,Burgaw,NC,28425,AFTER SCH,34.038883,-78.065441,37019,34.54513,-77.918541,Pender,28425,5005,TRUE,FALSE,Brunswick
Brigade Boys & Girls Club @ Hampstead Baptist Church,67 Factory Rd,Hampstead,NC,28443,AFTER SCH,34.381977,-77.731729,37141,34.367288,-77.709298,Pender,28443,8242,TRUE,TRUE,
Helping Hands/St Stanislaus Ch,4849 Castle Hayne Road,Castle Hayne,NC,28429,FOODPANTRY,34.340567,-77.906922,37129,34.3418665,-77.906299,New Hanover,28429,6406,TRUE,TRUE,
BATH,2237 Castle Hayne Road,Wilmington,NC,28401,FOODPANTRY,34.282061,-77.922913,37129,34.282235,-77.923598,New Hanover,28401,2773,TRUE,TRUE,
St. Peter The Fisherman Church,314 S. Carolina Avenue,Wilmington,NC,28401,SOUP KITCH,33.916224,-78.261785,37019,34.2087256,-77.9462261,New Hanover,28401,6533,TRUE,FALSE,Brunswick
Wilmington Branch TEFAP,1314 Marstellar Street,Wilmington,NC,28401,FOODPANTRY,34.221493,-77.930086,37129,34.2208346,-77.9301047,New Hanover,28401,,TRUE,TRUE,
Pender County Christian,102 E. Wilmington Street,Burgaw,NC,28425,FOODPANTRY,34.551696,-77.925371,37141,34.5515225,-77.9263903,Pender,28425,,TRUE,TRUE,
Good Shepherd Center,811 Martin Street,Wilmington,NC,28403,SHELTER,34.222176,-77.887524,37129,34.218841,-77.93661,New Hanover,28401,7825,FALSE,TRUE,
Good Shepherd Center,811 Martin Street,Wilmington,NC,28401,SOUP KITCH,34.218513,-77.937167,37129,34.218841,-77.93661,New Hanover,28401,7825,TRUE,TRUE,
Hobgood Citizens Group,401 Beech St.,Hobgood,NC,27886,FOODPANTRY,36.060492,-77.361797,37083,36.0257197,-77.397165,Halifax,27843,9638,FALSE,TRUE,
Interact,confidential,Raleigh,NC,NA,SHELTER,NA,NA,NA,,,,,,FALSE,,
Christians United Outreach Ctr,2885 Lee Avenue,Sanford,NC,27330,FOODPANTRY,35.456744,-79.152215,37105,35.450551,-79.144304,Lee,27332,6205,FALSE,TRUE,
Eagle Springs Baptist Church,460 Eagle Springs Road,Eagle Springs,NC,27242,FOODPANTRY,35.290984,-79.648942,37125,35.291355,-79.64906,Moore,27242,,TRUE,TRUE,
Washington Chapel Missionary,347 Bell Fork Road,Jacksonville,NC,28540,FOODPANTRY,34.75902,-77.398065,37133,34.75939,-77.397021,Onslow,28540,7007,TRUE,TRUE,
FoodLink Test Agency,3808 Tarheel Drive,Raleigh,NC,27609,OTHER,35.831161,-78.607644,37183,35.8314385,-78.607163,Wake,27609,7521,TRUE,TRUE,
First Cosmopolitan MBC,1515 Cross Link Rd,Raleigh,NC,27610,FOODPANTRY,35.752012,-78.616815,37183,35.7530649,-78.6166194,Wake,27610,4909,TRUE,TRUE,
Kingdom Ministry,4922 Windy Hill Drive Ste. A,Raleigh,NC,27611,OTHER,35.850493,-78.607718,37183,35.851008,-78.607094,Wake,27609,5196,FALSE,TRUE,
An Elegant Affair,101 South Arendell Ave,Zebulon,NC,27591,OTHER,35.783563,-78.363166,37183,35.8212715,-78.3125975,Wake,27597,,FALSE,TRUE,
Health First Community,2949 New Bern Ave. Ste 112 C,Raleigh,NC,27610,FOODPANTRY,35.78615,-78.589166,37183,35.7861578,-78.5902263,Wake,27610,,TRUE,TRUE,
Greater Cary Christian,2825 Jones Franklin Rd.,Raleigh,NC,27606,FOODPANTRY,35.74514,-78.737872,37183,35.7452206,-78.7378588,Wake,27606,,TRUE,TRUE,
Kings Park Church,1305 Odyssey Drive,Durham,NC,27713,FOODPANTRY,35.928747,-78.894759,37063,35.9310713,-78.8931825,Durham,27713,1705,TRUE,TRUE,
Housing For New Hope,501 E. Carver St.,Durham,NC,27704,GROUP HOME,36.04274,-78.89253,37063,36.0445368,-78.8921491,Durham,27704,,TRUE,TRUE,
Fidelity Baptist Church,627 Summit Rd.,Littleton,NC,27850,FOODPANTRY,36.454067,-77.82367,37083,36.45343,-77.824188,Halifax,27850,,TRUE,TRUE,
Harrison Family YMCA,1000 Independence Drive,Rocky Mount,NC,27804,AFTER SCH,35.97133,-77.807486,37127,35.9697766,-77.7971352,Nash,27804,1903,TRUE,TRUE,
Make a Difference Food Pantry,3518 U.S. 13,Goldsboro,NC,27530,FOODPANTRY,35.334164,-78.033895,37191,35.4292845,-77.8799572,Wayne,27534,,FALSE,TRUE,
Changing Hearts Deliverance,102 Holt's Pond Road,Princeton,NC,27569,FOODPANTRY,35.464658,-78.164786,37101,35.4645978,-78.1648432,Johnston,27569,7207,TRUE,TRUE,
Help and Hope Univeral,3500 Westgate Drive Ste 604,Durham,NC,27707,OTHER,35.968076,-78.961424,37063,35.9649739,-78.9610125,Durham,27707,,TRUE,TRUE,
Life International,401 N. Driver St,Durham,NC,27703,FOODPANTRY,35.988867,-78.878348,37063,35.9896508,-78.8788866,Durham,27703,3007,TRUE,TRUE,
United Nations Worship Center,2100 Chapel Hill Road,Durham,NC,27707,FOODPANTRY,35.986213,-78.92849,37063,35.9861269,-78.9291173,Durham,27707,,TRUE,TRUE,
Faith In Action,605A Benson Rd,Garner,NC,27529,FOODPANTRY,35.703148,-78.612629,37183,35.7029741,-78.6121079,Wake,27529,,TRUE,TRUE,
Covenant Life Church,305 A Asheville Ave,Cary,NC,27518,FOODPANTRY,35.739329,-78.785211,37183,35.7384425,-78.7854398,Wake,27518,6667,TRUE,TRUE,
Healing With CAARE,3000 Falstaff Rd.,Raleigh,NC,27603,FOODPANTRY,35.781835,-78.589452,37183,35.7805195,-78.5864868,Wake,27610,,FALSE,TRUE,
Jesus Word Church,1321 Humphrey St,Durham,NC,27701,FOODPANTRY,35.982127,-78.887945,37063,35.9819964,-78.8877053,Durham,27701,4229,TRUE,TRUE,
Devine Worship Christian CTR,2910 Geer Street,Durham,NC,27704,FOODPANTRY,36.034922,-78.825033,37063,36.034941,-78.824135,Durham,27704,3848,TRUE,TRUE,
Just Recovery,416 Todd Street,Durham,NC,27704,REHAB,36.05286,-78.896848,37063,36.053294,-78.897826,Durham,27704,1822,TRUE,TRUE,
Sandhills UCC,321 Keyser Street,Aberdeen,NC,28315,FOODPANTRY,35.123426,-79.422434,37125,35.123573,-79.422056,Moore,28315,,TRUE,TRUE,
Victory Gospel Chapel,2720 Poole Rd,Raleigh,NC,27610,SHELTER,35.77212,-78.597654,37183,35.771623,-78.596877,Wake,27610,2824,TRUE,TRUE,
Shepherd's House,107 N. Driver Street,Durham,NC,27703,FOODPANTRY,35.985882,-78.878043,37063,35.9862546,-78.8781112,Durham,27703,,TRUE,TRUE,
Emmanuel Ethiopian Christian,4131 Western Blvd.,Raleigh,NC,27606,FOODPANTRY,35.784035,-78.694233,37183,35.783676,-78.694947,Wake,27606,1964,TRUE,TRUE,
Catholic Charities,3711 University Drive Suite B,Durham,NC,27707,FOODPANTRY,35.966744,-78.950234,37063,35.9663666,-78.9506754,Durham,27707,,TRUE,TRUE,
Hillsborough Church Of God,2412 HWY 86 South,Hillsborough,NC,27278,FOODPANTRY,36.048648,-79.079527,37135,36.047648,-79.079582,Orange,27278,,TRUE,TRUE,
Kingdom Entity Apostolic,8114 Hwy. 258 N,Farmville,NC,27699,FOODPANTRY,35.922719,-78.570121,37183,35.550575,-77.603618,Greene,27828,,FALSE,FALSE,Wake
Senior Home Care Services Inc.,1001 Hooker Road,Greenville,NC,27834,FOODPANTRY,35.587881,-77.387838,37147,35.584897,-77.386438,Pitt,27834,6312,TRUE,TRUE,
"ADLA, Inc.",612 South Breazeal Avenue,Mount Olive,NC,28365,FOODPANTRY,35.18997,-78.074971,37191,35.190295,-78.076747,Wayne,28365,2606,TRUE,TRUE,
Lakeside Lutheran Church,2427 Eaton Ferry Rd,Littleton,NC,27850,FOODPANTRY,36.532416,-77.941196,37083,36.5324605,-77.9389237,Warren,27850,,TRUE,FALSE,Halifax
New Life Fellowship Church,4717 Olivia Rd.,Olivia,NC,27332,FOODPANTRY,35.357574,-79.127782,37105,35.3575498,-79.128008,Harnett,27332,,TRUE,FALSE,Lee
Recovery Connections Community,3110 County Line Rd.,Angier,NC,27501,REHAB,35.482329,-78.650249,37101,35.483773,-78.645273,Johnston,27501,8357,TRUE,TRUE,
Open Door Community Center,1502 Nash Street NW,Wilson,NC,27893,FOODPANTRY,35.742874,-77.923435,37195,35.74298,-77.923181,Wilson,27893,1824,TRUE,TRUE,
Faith Tabernacle,64 Washington St.,Roanoke Rapids,NC,27870,FOODPANTRY,36.470456,-77.647283,37083,36.4704201,-77.6472739,Halifax,27870,2025,TRUE,TRUE,
Centennial Campus Middle,1900 Main Campus Dr.,Raleigh,NC,27606,SCHOOL,35.77135,-78.677559,37183,35.7581759,-78.6872846,Wake,27606,,TRUE,TRUE,
Love Divine Ministry INC.,318 S. Driver Street,Durham,NC,27704,FOODPANTRY,35.982793,-78.87772,37063,35.9822314,-78.8779944,Durham,27703,4264,FALSE,TRUE,
Save the Family Church,2822 Cashwell Drive #121,Goldsboro,NC,27534,FOODPANTRY,35.376695,-77.947848,37191,35.3761019,-77.9476236,Wayne,27534,,TRUE,TRUE,
Woods Chapel UAFWB Church,928 East New Hope Road,Goldsboro,NC,27534,FOODPANTRY,35.381908,-77.888955,37191,35.381327,-77.889818,Wayne,27534,7049,TRUE,TRUE,
Apex UMC,100 S. Hughes St.,Apex,NC,27502,AFTER SCH,35.729806,-78.84931,37183,35.7296376,-78.8502816,Wake,27502,1910,TRUE,TRUE,
Faith on Fire Deliverance,235 Esther Rd,West End,NC,27376,FOODPANTRY,35.239092,-79.452406,37125,35.2391434,-79.4524911,Moore,27376,8933,TRUE,TRUE,
Vaughn's Chapel MB Church,4966 S. Elm City Rd,Elm City,NC,27822,FOODPANTRY,35.786465,-77.860688,37195,35.795932,-77.862199,Wilson,27822,8113,TRUE,TRUE,
"Spreading Seeds, Inc.",3904 Airport Drive NorthWest,Wilson,NC,27896,FOODPANTRY,35.766273,-77.965915,37195,35.757963,-77.9555881,Wilson,27896,8808,TRUE,TRUE,
Paradise Outreach,908 West Star Street,Greenville,NC,27834,FOODPANTRY,35.568876,-77.442072,37147,35.5692329,-77.443166,Pitt,27834,856,TRUE,TRUE,
REACH Our Communities,605 West Noble Street,Selma,NC,27576,AFTER SCH,35.536536,-78.290156,37101,35.536614,-78.290197,Johnston,27576,2723,TRUE,TRUE,
T.A Byrd Youth Enrichment,227 Orville Street,Henderson,NC,27536,AFTER SCH,36.316956,-78.382831,37181,36.317762,-78.382079,Vance,27536,5233,TRUE,TRUE,
Friendship One Accord,16221 Zion Road,Marston,NC,28353,SOUP KITCH,34.925531,-79.447838,37153,34.925306,-79.447695,Scotland,28363,8609,FALSE,FALSE,Richmond
Herring Grove FWB Church,4851 US Hwy 70,Kinston,NC,28504,ELDERLY NU,35.261018,-77.674208,37107,35.258522,-77.66314,Lenoir,28504,9122,TRUE,TRUE,
Sunrise Recovery Resource,1201 North Roxboro Street,Durham,NC,27701,OTHER,36.003423,-78.893051,37063,36.003649,-78.8931814,Durham,27701,2354,TRUE,TRUE,
We Care Center,5128 Highway 705,Robbins,NC,27325,FOODPANTRY,35.450742,-79.597712,37125,35.4507604,-79.5976762,Moore,27325,,TRUE,TRUE,
Warren-Vance Community Health,511 Ruin Creek Road,Henderson,NC,27536,OTHER,36.316137,-78.456654,37181,36.3312565,-78.4469608,Vance,27537,,FALSE,TRUE,
Pleasant Union Christian,2164 Neills Creek Rd,Lillington,NC,27546,FOODPANTRY,35.438997,-78.774838,37085,35.439,-78.77418,Harnett,27546,6115,TRUE,TRUE,
"Operation Care of Wilson, Inc.",613 Mercer Street,Wilson,NC,27893,FOODPANTRY,35.633945,-77.931337,37195,35.721098,-77.917828,Wilson,27893,3935,TRUE,TRUE,
HB Suggs Community Center,3632 S. George Street,Farmville,NC,27828,FOODPANTRY,35.589328,-77.594312,37147,35.591296,-77.594888,Pitt,27828,1897,TRUE,TRUE,
St. Peter's Development Center,1295 East Mumford Road,Greenville,NC,27834,ELDERLY NU,35.627601,-77.35489,37147,35.628619,-77.354495,Pitt,27834,1348,TRUE,TRUE,
Other Side Christian Center,405 Rogers View Ct. Ste 105,Raleigh,NC,27610,FOODPANTRY,35.780037,-78.545056,37183,35.774391,-78.552834,Wake,27610,2930,TRUE,TRUE,
Salt and Light Unveiled,13533 NC Highway 55,Bayboro,NC,28515,AFTER SCH,35.137592,-76.748818,37137,35.145009,-76.796203,Pamlico,28515,,TRUE,TRUE,
State St. Community Church,1200 S. State St.,Raleigh,NC,27610,FOODPANTRY,35.765512,-78.624679,37183,35.7650663,-78.6251479,Wake,27610,,TRUE,TRUE,
Middlesex Church of God,5407 South NC 231,Middlesex,NC,27557,FOODPANTRY,35.739921,-78.256624,37127,35.846357,-78.175025,Nash,27557,8556,TRUE,TRUE,
Iglesia Primeros Frutos,500 Ohara St,Clayton,NC,27520,FOODPANTRY,35.644013,-78.457267,37101,35.6439883,-78.4572374,Johnston,27520,2840,TRUE,TRUE,
Warsaw United Methodist,107 W Plank St,Warsaw,NC,28398,FOODPANTRY,35.000225,-78.091959,37061,34.999965,-78.092312,Duplin,28398,1827,TRUE,TRUE,
Juniper Level,9104 Sauls Road,Raleigh,NC,27603,FOODPANTRY,35.630819,-78.641557,37183,35.631289,-78.642279,Wake,27603,9242,TRUE,TRUE,
Church At The Park,2228 Page Road Suite 108,Durham,NC,27703,FOODPANTRY,35.931429,-78.816504,37063,35.9272114,-78.8128356,Durham,27703,,TRUE,TRUE,
First Missionary Baptist,410 South Goldsboro St,Fremont,NC,27830,FOODPANTRY,35.540291,-77.976925,37191,35.5395386,-77.9772668,Wayne,27830,,TRUE,TRUE,
Our Lady of Perpetual Church,328 Hammond Street,Rocky Mount,NC,27804,FOODPANTRY,35.939202,-77.800616,37127,35.939624,-77.801299,Nash,27804,5823,TRUE,TRUE,
Goldsboro Y Preschool,900 South Harding Drive,Goldsboro,NC,27534,DAY CARE,35.389406,-77.93429,37191,35.3888233,-77.9350182,Wayne,27534,7442,TRUE,TRUE,
Unveiling Glory In Worship,873 West Star Street,Greenville,NC,27834,FOODPANTRY,35.568741,-77.44121,37147,35.568262,-77.441742,Pitt,27834,845,TRUE,TRUE,
Faith Devlopmental Community,655 Sussex Street,Kinston,NC,28501,FOODPANTRY,34.785897,-77.434703,37133,35.259569,-77.647361,Lenoir,28504,8320,FALSE,FALSE,Onslow
Full Deliverance Christian,1011 Orange Street,Henderson,NC,27536,FOODBANK,36.331426,-78.410367,37181,36.3313835,-78.4102725,Vance,27536,3284,TRUE,TRUE,
Fishers of Men Food Bank,612 South Breazeale Ave,Mount Olive,NC,28365,FOODPANTRY,35.205196,-78.044452,37191,35.190295,-78.076747,Wayne,28365,2606,TRUE,TRUE,
You Can Learn Center,552 Green Lake Road,Rockingham,NC,28379,SOUP KITCH,35.015584,-79.725165,37153,35.039051,-79.729505,Richmond,28379,7856,TRUE,TRUE,
Living Waters Christian,1104 Lynn Road,Durham,NC,27703,FOODPANTRY,35.971569,-78.84815,37063,35.971915,-78.84905,Durham,27703,4730,TRUE,TRUE,
Reelsboro United Christian Svc,51 Holland Drive,New Bern,NC,28560,FOODPANTRY,35.133805,-76.919129,37049,35.133719,-76.918627,Pamlico,28560,5204,TRUE,FALSE,Craven
Loaves and Fishes of Beaufort,112 Straits Rd,Beaufort,NC,28516,FOODPANTRY,34.734643,-76.557527,37031,34.733234,-76.559697,Carteret,28516,7211,TRUE,TRUE,
Mt. Bethel United Methodist,1605 Bahama Road,Durham,NC,27503,FOODPANTRY,36.166234,-78.876629,37063,36.167286,-78.875445,Durham,27503,9104,TRUE,TRUE,
Mt. Level Community Haven,316 Hebron Road,Durham,NC,27704,FOODPANTRY,36.05914,-78.895995,37063,36.0589197,-78.895654,Durham,27704,1340,TRUE,TRUE,
Vanceboro United Methodist,560 Farmlife Ave,Vanceboro,NC,28586,FOODPANTRY,35.300473,-77.150827,37049,35.300662,-77.150996,Craven,28586,,TRUE,TRUE,
Third Street Community Center,600 West Third Street,Greenville,NC,27834,AFTER SCH,35.61446,-77.379646,37147,35.6153818,-77.3801223,Pitt,27834,1926,TRUE,TRUE,
Cherry Point United Methodist,103 High School Dr,Havelock,NC,28532,FOODPANTRY,34.876985,-76.90171,37049,34.876921,-76.896216,Craven,28532,,TRUE,TRUE,
Undenominational Pentcostal,801 U.S. 70 East,New Bern,NC,28560,FOODPANTRY,35.009006,-76.991464,37049,35.085212,-77.033754,Craven,28560,,TRUE,TRUE,
Emmanuel Tabernacle Holiness,2525 Atlantic Street,Durham,NC,27707,FOODPANTRY,35.969411,-78.9034,37063,35.9690647,-78.9037203,Durham,27707,4109,TRUE,TRUE,
Victorious Life Empowerment,"3329 Chapel Hill BLVD, STE 100",Durham,NC,27707,FOODPANTRY,35.967188,-78.945266,37063,35.9709908,-78.9457399,Durham,27707,,TRUE,TRUE,
Greater Word of Life,114 East Hamlet Street,Pinetops,NC,27864,AFTER SCH,35.788924,-77.632003,37065,35.7910995,-77.6375192,Edgecombe,27864,,TRUE,TRUE,
North Carolina Central,1801 Old Fayeteville St,Durham,NC,27707,SCHOOL,35.977922,-78.90043,37063,35.9844763,-78.898161,Durham,27701,3914,FALSE,TRUE,
My Father's House Food Pantry,115 W. 9th Street,Greenville,NC,27834,FOODPANTRY,35.607031,-77.374213,37147,35.607054,-77.375009,Pitt,27834,3299,TRUE,TRUE,
Sure Promise Christian Church,4301 Pearl Rd.,Raleigh,NC,27610,FOODPANTRY,35.723908,-78.561211,37183,35.724035,-78.560261,Wake,27610,6113,TRUE,TRUE,
Warsaw Baptist Church,209 East College Street,Warsaw,NC,28398,FOODPANTRY,34.999822,-78.090051,37061,35.000274,-78.089692,Duplin,28398,1910,TRUE,TRUE,
Wake Technical Institute,9101 Fayeteville Rd.,Raleigh,NC,27603,FOODPANTRY,35.65126,-78.706862,37183,35.6508495,-78.7039465,Wake,27603,5655,TRUE,TRUE,
Community Baptist Church,9161 Tartan Road,Laurinburg,NC,28352,FOODPANTRY,34.703901,-79.520686,37165,34.704279,-79.520833,Scotland,28352,1985,TRUE,TRUE,
Boys & Girls Club of Coastal,199 Webb Blvd,Havelock,NC,28532,AFTER SCH,34.877438,-76.895142,37049,34.87679,-76.894172,Craven,28532,2000,TRUE,TRUE,
Greater Refuge Temple,1438 Maplewood Drive,Durham,NC,27704,FOODPANTRY,36.033331,-78.866832,37063,36.0327399,-78.8649949,Durham,27704,3431,TRUE,TRUE,
Alice Aycock Poe Center,224 Sunnybrook Rd.,Raleigh,NC,27610,OTHER,35.778434,-78.583437,37183,35.7791228,-78.5837655,Wake,27610,1830,TRUE,TRUE,
Iglesia De Dios Pentecostal,2331 New Bern Ave.,Raleigh,NC,27610,FOODPANTRY,35.779858,-78.599932,37183,35.780464,-78.599556,Wake,27610,2461,TRUE,TRUE,
Meredith College,3800 Hillsborough St,Raleigh,NC,27607,OTHER,35.794181,-78.687761,37183,35.7942709,-78.6880481,Wake,27607,5237,TRUE,TRUE,
Parkview Manor c/o,911 N Blount St.,Raleigh,NC,27604,ELDERLY NU,35.792496,-78.635668,37183,35.7921262,-78.6361409,Wake,27604,,TRUE,TRUE,
Rainbow 66 Storehouse INC.,706 Rigsbee Avenue,Durham,NC,27701,OTHER,36.002112,-78.899918,37063,36.002571,-78.8995149,Durham,27701,2139,TRUE,TRUE,
Rougemont Food Pantry,8009 Bunny Road,Rougemont,NC,27572,FOODPANTRY,36.218458,-78.970569,37063,36.2181556,-78.9710235,Orange,27572,,TRUE,FALSE,Durham
Oak Level Christian Church,2279 Cedar Creek Road,Youngsville,NC,27596,FOODPANTRY,36.034909,-78.454382,37069,36.039261,-78.448398,Franklin,27596,,TRUE,TRUE,
Refreshing Springs Church,1040 Hill Street,Rocky Mount,NC,27801,FOODPANTRY,35.931843,-77.784042,37065,35.9313689,-77.783036,Edgecombe,27801,5940,TRUE,TRUE,
Project In As Much,2220 Elm Avenue,Laurinburg,NC,28352,SEASONAL,34.735989,-79.48771,37165,34.734319,-79.487379,Scotland,28352,8528,TRUE,TRUE,
Breath Of Life Ministries,212 East North Main Street,Littleton,NC,27850,FOODPANTRY,36.436274,-77.91006,37083,36.4362557,-77.9099679,Halifax,27850,,TRUE,TRUE,
Kingdom Life Outreach,610-B North Madison Avenue,Goldsboro,NC,27530,FOODPANTRY,35.38262,-77.96904,37191,35.3830175,-77.9689407,Wayne,27530,,TRUE,TRUE,
The Point Care Center,1503 Walnut St.,Cary,NC,27511,FOODPANTRY,35.764707,-78.751223,37183,35.7653439,-78.7511087,Wake,27511,5926,TRUE,TRUE,
The Lord House Prophetic,2216 Page Road Suite 103,Durham,NC,27707,FOODPANTRY,35.931475,-78.816669,37063,35.9274957,-78.8128287,Durham,27703,,FALSE,TRUE,
Mary's Kitchen,110 N Independence St,Kinston,NC,28501,SOUP KITCH,35.260294,-77.57785,37107,35.260964,-77.5780149,Lenoir,28501,4910,TRUE,TRUE,
Iglesia de Dios Pentecostal,1042 Country Club Rd.,Jacksonville,NC,28546,FOODPANTRY,34.768647,-77.388868,37133,34.768116,-77.388796,Onslow,28546,6570,TRUE,TRUE,
Smithfield Area Ministries,140 East Market Street,Smithfield,NC,27577,FOODPANTRY,35.511209,-78.346007,37101,35.5118661,-78.3481213,Johnston,27577,3916,TRUE,TRUE,
New Birth Holiness Church,409 Dr Donnie Jones Jr Blvd,Princeton,NC,27569,FOODPANTRY,35.92628,-78.513761,37183,35.4688565,-78.1615762,Johnston,27569,,TRUE,FALSE,Wake
Tar River Baptist Association,92 NC 56 Hwy East,Louisburg,NC,27549,FOODPANTRY,36.102478,-78.458983,37069,36.097957,-78.291927,Franklin,27549,7332,TRUE,TRUE,
Our Daily Bread/Franklinton,109 N. Main Street,Franklinton,NC,27525,SOUP KITCH,36.104605,-78.456337,37069,36.1051851,-78.4561225,Franklin,27525,1314,TRUE,TRUE,
Temple Emmanuel,8 Sycamore Street,Weldon,NC,27890,FOODPANTRY,36.4283,-77.594584,37083,36.4286112,-77.5941523,Halifax,27890,1856,TRUE,TRUE,
Garber United Methodist Church,4201 Country Club Rd,New Bern,NC,28562,AFTER SCH,35.075862,-77.087091,37049,35.075562,-77.087912,Craven,28562,7617,TRUE,TRUE,
TABLE NC,205 West Weaver Street,Carrboro,NC,27510,BP,35.911232,-79.07334,37135,35.9109285,-79.0740482,Orange,27510,2019,TRUE,TRUE,
Father Son Holiness Church,202 Jan Court,Durham,NC,27707,FOODPANTRY,35.960564,-78.912757,37063,35.9607418,-78.9127963,Durham,27707,,TRUE,TRUE,
First Pentecostal Power,3607 Buffalo Rd.,Raleigh,NC,27604,FOODPANTRY,35.833925,-78.580938,37183,35.8348634,-78.5821136,Wake,27604,,TRUE,TRUE,
Crabtree Valley Baptist Church,4408 Lead Mine Rd.,Raleigh,NC,27622,FOODPANTRY,35.839969,-78.673497,37183,35.8405163,-78.673258,Wake,27612,,FALSE,TRUE,
"Courageous Hope, INC",3421 Angier Avenue,Durham,NC,27703,FOODPANTRY,35.965277,-78.857994,37063,35.964928,-78.857194,Durham,27703,5107,TRUE,TRUE,
Temple of Pentecost,2312 Lake Wheeler Rd.,Raleigh,NC,27603,FOODPANTRY,35.748774,-78.672101,37183,35.7492577,-78.6729513,Wake,27603,2612,TRUE,TRUE,
Light of Peace Church,319 Barnes Street,Wilson,NC,27893,FOODPANTRY,35.723157,-77.910488,37195,35.7241583,-77.9115391,Wilson,27893,3901,TRUE,TRUE,
Kairos Church Ministry,1003 S Lodge Street,Wilson,NC,27893,FOODPANTRY,35.715584,-77.921785,37195,35.715394,-77.921886,Wilson,27893,5801,TRUE,TRUE,
By Faith Church,"1708 Birchwood Drive, Apt B",Wilson,NC,27893,FOODPANTRY,35.705811,-77.898569,37195,35.705097,-77.898121,Wilson,27893,6466,TRUE,TRUE,
St. Andrew's Lutheran Church,1605 Neuse Blvd,New Bern,NC,28560,SOUP KITCH,35.109883,-77.060362,37049,35.109683,-77.06136,Craven,28560,2319,TRUE,TRUE,
New Bethel Baptist Church,605 E. Young St.,Rolesville,NC,27571,FOODPANTRY,35.91769,-78.453199,37183,35.9173066,-78.4522611,Wake,27571,9456,TRUE,TRUE,
Bailey United Methodist,6117 Deans Street,Bailey,NC,27807,FOODPANTRY,35.779779,-78.112243,37127,35.779607,-78.112267,Nash,27807,,TRUE,TRUE,
Faith Tabernacle Ministry,4820 Guy Road,Clayton,NC,27520,FOODPANTRY,35.674913,-78.52063,37101,35.674165,-78.519896,Wake,27520,8000,TRUE,FALSE,Johnston
Birchwood Learning Center,416 Walton Street,Durham,NC,27703,FOODPANTRY,35.981886,-78.846774,37063,35.981163,-78.846948,Durham,27703,4636,TRUE,TRUE,
Mary Grove Missionary Baptist,6202 Wiggins Mill Road,Lucama,NC,27851,FOODPANTRY,35.671559,-78.045907,37195,35.673179,-78.0436859,Wilson,27851,,TRUE,TRUE,
Duplin Christian Outreach,513 Southeast Railroad St,Wallace,NC,28466,SOUP KITCH,34.730363,-77.994214,37061,34.7295671,-77.9939299,Duplin,28466,2089,TRUE,TRUE,
Durham Tech Community College,1637 Lawson Street,Durham,NC,27703,OTHER,35.974398,-78.884033,37063,35.975381,-78.880688,Durham,27703,5023,TRUE,TRUE,
The Jesus House of Prayer,353 Brannon Road,Bunn,NC,27508,FOODPANTRY,35.923611,-78.277816,37183,35.9253541,-78.2740287,Franklin,27597,9482,FALSE,FALSE,Wake
Iglesia Pentecostal Jesucristo,1508 Bizzell Grove Church Rd,Selma,NC,27576,FOODPANTRY,35.543197,-78.179605,37101,35.5430599,-78.180018,Johnston,27576,8918,TRUE,TRUE,
Spirit & Truth Worship Center,1512 N Greene Street,Greenville,NC,27834,FOODPANTRY,35.633362,-77.371596,37147,35.6339282,-77.3710069,Pitt,27834,1221,TRUE,TRUE,
Hillyer Memorial Christian,718 Hillsborough St.,Raleigh,NC,27603,SUPPLEMENT,35.780903,-78.649379,37183,35.7811302,-78.6499583,Wake,27603,1606,TRUE,TRUE,
Church on the Rise,1725 Davis Street,Rocky Mount,NC,27804,FOODPANTRY,35.923548,-77.806983,37127,35.922985,-77.806708,Nash,27803,4313,FALSE,TRUE,
Nelson Chapel  Baptist Church,100 Leonard Farm Road,Louisburg,NC,27549,FOODPANTRY,36.08092,-78.242206,37069,36.0806835,-78.2422587,Franklin,27549,7301,TRUE,TRUE,
Unity Ministry,616 Broad Street,New Bern,NC,28560,SOUP KITCH,35.108502,-77.043063,37049,35.1088222,-77.043785,Craven,28560,4806,TRUE,TRUE,
New Focus Community Mission,432 Hannon Street,Enfield,NC,27823,FOODPANTRY,36.17198,-77.667767,37083,36.1717389,-77.6662591,Halifax,27823,,TRUE,TRUE,
Rose Hill Free Will Baptist,6236 County Road,Winterville,NC,28590,FOODPANTRY,35.53346,-77.396822,37147,35.4936818,-77.3536428,Pitt,28590,,TRUE,TRUE,
United Missionary,907 Main Street,New Bern,NC,28560,AFTER SCH,35.113297,-77.048248,37049,35.113164,-77.048293,Craven,28560,3940,TRUE,TRUE,
Abundant Life Ministries,500 Peachtree Street,Rocky Mount,NC,27801,FOODPANTRY,35.94961,-77.797642,37127,35.949922,-77.798726,Nash,27804,4835,FALSE,TRUE,
Building 323,73 Wilder Road,Middlesex,NC,27557,FOODPANTRY,35.753762,-78.256875,37127,35.7537254,-78.2566444,Johnston,27557,,TRUE,FALSE,Nash
West Chatham Food Pantry,126 Village Lake Road,Siler City,NC,27344,FOODPANTRY,35.726487,-79.479653,37037,35.7394331,-79.468965,Chatham,27344,1821,TRUE,TRUE,
First United Methodist Church,324 Miller Blvd,Havelock,NC,28532,SOUP KITCH,34.882668,-76.917334,37049,34.8827572,-76.9189141,Craven,28532,,TRUE,TRUE,
New Freedom Christian,3540 Maitland Dr. Suite 105,Raleigh,NC,27610,FOODPANTRY,35.796597,-78.581962,37183,35.7962573,-78.5820974,Wake,27610,1230,TRUE,TRUE,
DD-Durham Housing Authority,3412 Glasson Street,Durham,NC,27705,MOBILE FP,36.004425,-78.956975,37063,36.0042676,-78.9571127,Durham,27705,5142,TRUE,TRUE,
Folkstone Original Free Will,133 Old Folkstone Road,Holly Ridge,NC,28445,FOODPANTRY,34.535613,-77.502033,37133,34.535978,-77.501748,Onslow,28445,,TRUE,TRUE,
Coastal Women's Shelter,14180 Hwy. 55,Bayboro,NC,28529,FOODPANTRY,35.141965,-76.837076,37137,35.1438175,-76.7844935,Pamlico,28515,,FALSE,TRUE,
Ebenezer Missionary Baptist,625 Raleigh Road,Rocky Mount,NC,27802,FOODPANTRY,35.935062,-77.807199,37127,35.9349786,-77.8073412,Nash,27803,2760,FALSE,TRUE,
St. James Missionary Baptist,3005 Oxford Rd,Henderson,NC,27536,FOODPANTRY,36.309184,-78.436598,37181,36.3105483,-78.4348861,Vance,27536,,TRUE,TRUE,
Beaver Creek Church,2280 Nicholson Rd,Cameron,NC,28326,FOODPANTRY,35.345734,-79.198043,37125,35.346231,-79.199079,Lee,28326,,TRUE,FALSE,Moore
Faith Assembly Church,148 Daniels Street,Hamlet,NC,28345,SOUP KITCH,34.903597,-79.693362,37153,34.903722,-79.693119,Richmond,28345,9390,TRUE,TRUE,
Sandhills Childrens Ctr.,108 Crow Run,Rockingham,NC,28379,DAY CARE,34.934172,-79.752228,37153,34.933848,-79.750789,Richmond,28379,4334,TRUE,TRUE,
Teen Central,1701 Walnut Grove Church Road,Hillsborough,NC,27278,FOODPANTRY,36.143419,-79.122121,37135,36.1481265,-79.1151832,Orange,27278,,TRUE,TRUE,
For a Brighter Future,8 North Main Street,Franklinton,NC,27525,AFTER SCH,36.104406,-78.456347,37069,36.1035338,-78.4567315,Franklin,27525,1357,TRUE,TRUE,
North Carolina Poverty,313 Old Hwy 111,Goldsboro,NC,27863,FOODPANTRY,35.499747,-77.981688,37191,35.315042,-77.935137,Wayne,27534,,FALSE,TRUE,
Truth Foundational Ministries,409 W Burnett St,Pinetops,NC,27864,FOODPANTRY,35.791577,-77.641675,37065,,,Edgecombe,27864,,TRUE,TRUE,
Durham Center For Senior Life,406 Riggsbee Avenue,Durham,NC,27707,SENIOR OFF,35.999206,-78.899862,37063,35.9992737,-78.8991844,Durham,27701,2186,FALSE,TRUE,
American Red Cross- Lenoir,1500 N. Queen Sreet,Kinston,NC,28501,DISASTER,35.279157,-77.580739,37107,35.279244,-77.581086,Lenoir,28501,2945,TRUE,TRUE,
First Worldwide Ministries Inc,320 Bledsoe Ave,Raleigh,NC,27601,FOODPANTRY,35.768184,-78.634596,37183,35.7679611,-78.6340958,Wake,27601,2606,TRUE,TRUE,
Pleasant Acres Free Will,2911 Old Cherry Point Road,New Bern,NC,28560,FOODPANTRY,35.060362,-77.013106,37049,35.0597459,-77.013441,Craven,28560,6785,TRUE,TRUE,
Millbrook United Methodist,1712 East Millbrook Rd.,Raleigh,NC,27609,FOODPANTRY,35.850068,-78.60761,37183,35.8500347,-78.6069699,Wake,27609,,TRUE,TRUE,
The Stone Chapel,701 South Main St.,Wake Forest,NC,27587,FOODPANTRY,35.972729,-78.515316,37183,35.9725211,-78.5151409,Wake,27587,,TRUE,TRUE,
"Jesus Is Justice Mission, Inc.",469 Mills Road,East Rockingham,NC,27379,FOODPANTRY,36.40236,-79.339633,37033,34.914149,-79.756414,Richmond,28379,4436,FALSE,FALSE,Caswell
Oak Grove Community,854 Oak Grove Mt. Zion Road,Roxboro,NC,27574,FOODPANTRY,36.463615,-79.020708,37145,36.46299,-79.018118,Person,27574,9658,TRUE,TRUE,
Better Days Ministries,2245 Garner Rd.,Raleigh,NC,27601,ELDERLY NU,35.765679,-78.631524,37183,35.748589,-78.6300399,Wake,27610,4609,FALSE,TRUE,
Open Door Baptist Church,9801 Durant Rd.,Raleigh,NC,27614,FOODPANTRY,35.900351,-78.577443,37183,35.8993589,-78.578718,Wake,27614,9367,TRUE,TRUE,
"Burning Bush Ministries, Inc",503 Hwy 70 East C,Garner,NC,27610,FOODPANTRY,35.765679,-78.631524,37183,35.6996103,-78.5933483,Wake,27529,,FALSE,TRUE,
Mt. Moriah,168 Donmoor Ct.,Garner,NC,27529,FOODPANTRY,35.725225,-78.642813,37183,35.7259524,-78.6429042,Wake,27529,2500,TRUE,TRUE,
New Covenant Christian Ctr.,9460 Andrew Jackson Hwy,Laurel Hill,NC,28351,FOODPANTRY,34.808555,-79.548596,37165,34.8081008,-79.5475307,Scotland,28351,9346,TRUE,TRUE,
"Open Door Management, Inc",1675 Halltown Road,Jacksonville,NC,28546,FOODPANTRY,34.77336,-77.355759,37133,34.772727,-77.354091,Onslow,28546,4565,TRUE,TRUE,
Staton Mill Road Community,1251 Fleming School Rd,Greenville,NC,27834,FOODPANTRY,35.658345,-77.391351,37147,35.658395,-77.393736,Pitt,27834,,TRUE,TRUE,
PCSA (Psychotherapeutic,400 West Main Street Ste 501,Durham,NC,27701,OTHER,35.996966,-78.904181,37063,35.9976154,-78.9043071,Durham,27701,,TRUE,TRUE,
Temple Baptist Church,1417 Clifton St.,Raleigh,NC,27604,SOUP KITCH,35.797769,-78.62661,37183,35.7978217,-78.627353,Wake,27604,2010,TRUE,TRUE,
Gibraltar - Church on the Rock,112 W. Hope Lodge St,Tarboro,NC,27886,FOODPANTRY,35.912575,-77.544444,37065,35.911491,-77.5458699,Edgecombe,27886,2439,TRUE,TRUE,
Church of God,4004 Main Street,Tarboro,NC,27886,FOODPANTRY,35.9266,-77.583809,37065,35.9266271,-77.5840663,Edgecombe,27886,,TRUE,TRUE,
Area Day Reporting Program For Jasper Hayes Omega Center,822 Cedar Street,New Bern,NC,28560,MOBILE FP,35.106704,-77.072719,37049,35.112187,-77.04706,Craven,28560,,TRUE,TRUE,
Salvation Army-Maysville,510 Main Street,Maysville,NC,28555,FOODPANTRY,34.904793,-77.231458,37103,34.904763,-77.231847,Jones,28555,,TRUE,TRUE,
St. Mary A.M.E. Church,600 S Salem St.,Apex,NC,27502,FOODPANTRY,35.72454,-78.856028,37183,35.724532,-78.856424,Wake,27502,2042,TRUE,TRUE,
Overflow Outreach Ministry,2412 A Paula St.,Raleigh,NC,27608,FOODPANTRY,35.813066,-78.625155,37183,35.813852,-78.624752,Wake,27608,1706,TRUE,TRUE,
Foundation of Jesus Christ,4409 Main Street,Ellerbe,NC,28338,FOODPANTRY,35.077351,-79.762487,37153,35.0715,-79.7614007,Richmond,28338,,TRUE,TRUE,
Cokesbury United,2440 S Cokesbury Road,Henderson,NC,27537,FOODPANTRY,36.348621,-78.30422,37181,36.3487881,-78.3057211,Vance,27537,8015,TRUE,TRUE,
Holly Springs Food Cupboard,621 W. Holly Springs Rd.,Holly Springs,NC,27540,FOODPANTRY,35.655841,-78.843023,37183,35.6554189,-78.842771,Wake,27540,7028,TRUE,TRUE,
Better Life Development Ctr,6628 Old Wake Forest Rd,Raleigh,NC,27616,FOODPANTRY,35.866689,-78.589566,37183,35.8667799,-78.589145,Wake,27616,1812,TRUE,TRUE,
First Presbyterian Church,200 Rice Street,Hamlet,NC,28345,FOODPANTRY,34.887164,-79.703001,37153,34.887347,-79.703565,Richmond,28345,3342,TRUE,TRUE,
Riley Hill Family Life Center,5901 Riley Hill Rd.,Wendell,NC,27591,FOODPANTRY,35.856792,-78.415179,37183,35.858141,-78.41687,Wake,27591,9182,TRUE,TRUE,
Bethlehem United Holy Church,1311 Milton Rd,Durham,NC,27712,FOODPANTRY,36.103998,-78.917347,37063,36.104674,-78.918512,Durham,27712,1522,TRUE,TRUE,
Evangel Christian Fellowship,1421 Graham Street,Rocky Mount,NC,27803,FOODPANTRY,35.930189,-77.821689,37127,35.929969,-77.822628,Nash,27803,3225,TRUE,TRUE,
Showers of Blessing Community,10 Technology Drive,Garner,NC,27529,FOODPANTRY,35.608283,-78.567878,37183,35.6048608,-78.5689887,Johnston,27529,7958,TRUE,FALSE,Wake
Cornerstone Assembly,2304 US Hwy. 70 East,New Bern,NC,28560,FOODPANTRY,35.009048,-76.991352,37049,35.064265,-77.020073,Craven,28560,,TRUE,TRUE,
Christ Community United,1082 Amelia Church Rd,Clayton,NC,27520,FOODPANTRY,35.645873,-78.490924,37101,35.646253,-78.491484,Johnston,27520,7953,TRUE,TRUE,
Jonathans Outreach Network,302 S. Driver Street,Durham,NC,27703,FOODPANTRY,35.982925,-78.877697,37063,35.9828228,-78.8777527,Durham,27703,4264,TRUE,TRUE,
New Hope Community Outreach,504 Main Street,Maysville,NC,28555,AFTER SCH,34.905008,-77.231522,37103,34.9050074,-77.2316123,Jones,28555,,TRUE,TRUE,
Boys & Girls Club of NCNC,212 N Clark St,Henderson,NC,27536,AFTER SCH,36.324722,-78.395841,37181,36.3247521,-78.3958066,Vance,27536,4320,TRUE,TRUE,
Abundant Life Church,2965 Forest Hills Road,Wilson,NC,27893,FOODPANTRY,35.702846,-77.949651,37195,35.702368,-77.948577,Wilson,27893,9298,TRUE,TRUE,
Victory & Dominion World,1438 Hwy 13/ 258 North,Snow Hill,NC,28580,FOODPANTRY,35.473168,-77.658578,37079,35.4593889,-77.7042918,Greene,28580,,TRUE,TRUE,
Straightway Temple,3009 Rosinburg Rd.,Zebulon,NC,27597,FOODPANTRY,35.860344,-78.295077,37183,35.860344,-78.296168,Wake,27597,7706,TRUE,TRUE,
Havelock Cherry Point,"925 E. Main Street, Suite 20",Havelock,NC,28532,FOODPANTRY,34.864493,-76.898488,37049,34.8650052,-76.8976905,Craven,28532,2375,TRUE,TRUE,
Pleasant Grove Missionary,952 Morphus Bridge Rd.,Wendell,NC,27591,FOODPANTRY,35.780805,-78.350387,37183,35.781128,-78.352951,Wake,27591,,TRUE,TRUE,
Lighthouse Christian,9856 Highway 210,Four Oaks,NC,27524,FOODPANTRY,35.509126,-78.518149,37101,35.5090541,-78.5181682,Johnston,27524,,TRUE,TRUE,
John Avery Boys & Girls Club,808 E. Pettigrew Street,Durham,NC,27702,AFTER SCH,35.985815,-78.894171,37063,35.9850288,-78.8930693,Durham,27701,3925,FALSE,TRUE,
"Linden Lodge Foundation, INC",2251 Linden Road,Aberdeen,NC,28374,GROUP HOME,35.193312,-79.486092,37125,35.163212,-79.4951619,Moore,28315,5625,FALSE,TRUE,
Freedom Family Foundation,668 Stratford Blvd.,Kinston,NC,28504,FOODPANTRY,34.748719,-77.418392,37133,35.262018,-77.641739,Lenoir,28504,9647,TRUE,FALSE,Onslow
Hearts For Children Intl.,14705 New Light Rd.,Wake Forest,NC,27587,FOODPANTRY,36.004443,-78.663162,37183,36.0184209,-78.655534,Wake,27587,8620,TRUE,TRUE,
St. Mark Church of Christ,700 West Ash Street,Goldsboro,NC,27533,FOODPANTRY,35.388109,-78.004396,37191,35.3879019,-78.006343,Wayne,27530,3551,FALSE,TRUE,
UMOJA Central SDA Church,314 Bashford Rd,Raleigh,NC,27606,FOODPANTRY,35.782768,-78.738922,37183,35.782064,-78.738709,Wake,27606,1109,TRUE,TRUE,
Open Door Ministry of Faith,740 Planters Street,Rocky Mount,NC,27801,FOODPANTRY,35.928723,-77.788073,37065,35.9288669,-77.787375,Edgecombe,27801,,TRUE,TRUE,
Mount Calvary Grace & Mercy,411 Watauga Avenue,Greenville,NC,27834,FOODPANTRY,35.605831,-77.38963,37147,35.606177,-77.390516,Pitt,27834,3848,TRUE,TRUE,
SNAK PAK PALS,500 E.Rhode Island Ave.,Southern Pines,NC,28387,ELDERLY NU,34.785404,-78.928287,37155,35.172567,-79.3808519,Moore,28387,,TRUE,FALSE,Robeson
Cristo La Solucion,1205 North Smithfield Rd,Knightdale,NC,27545,FOODPANTRY,35.80115,-78.486778,37183,35.7999,-78.487493,Wake,27545,7725,TRUE,TRUE,
"Freedom Family Foundation, Inc",313 Clifton Street,Greenville,NC,27834,FOODPANTRY,35.589899,-77.376089,37147,35.590837,-77.375033,Pitt,27858,5008,FALSE,TRUE,
Corinth United,7900  Zebulon Rd,Youngsville,NC,27596,FOODPANTRY,35.97595,-78.442843,37069,35.976442,-78.440152,Wake,27596,8814,TRUE,FALSE,Franklin
TMO Foundation Inc.,704 East broad st,Dunn,NC,28339,FOODPANTRY,34.978217,-78.514959,37163,35.304534,-78.603838,Harnett,28334,5104,FALSE,FALSE,Sampson
Coats COGOP,7819 NC Hwy 27,Coats,NC,27521,FOODPANTRY,35.403068,-78.611037,37085,35.4038619,-78.610324,Harnett,27521,,TRUE,TRUE,
Kingdom Health Care Inc.,81 Egypt Church Road,Louisburg,NC,27549,FOODPANTRY,36.056879,-78.297911,37069,36.057226,-78.298733,Franklin,27549,6703,TRUE,TRUE,
New Providence Missionary,4813 Hilltop Needmore Rd.,Fuquay-Varina,NC,27526,FOODPANTRY,35.631768,-78.744421,37183,35.6315596,-78.746188,Wake,27526,9264,TRUE,TRUE,
Salvation Army - Dunn,PO Box 805,Smithfield,NC,27577,FOODPANTRY,NA,NA,NA,,,Johnston,,,FALSE,,
Joseph Provisions,"2202 May Street, #11",Greenville,NC,27834,FOODPANTRY,35.605651,-77.378768,37147,35.59878,-77.393509,Pitt,27834,,TRUE,TRUE,
OE Enterprises,348 Elizabeth Brady Road,Hillsborough,NC,27243,ADULT DAY,36.145744,-79.253869,37135,36.0739159,-79.084307,Orange,27278,9540,FALSE,TRUE,
Greater St. Peter,886  Will Baker Road,Kinston,NC,28504,FOODPANTRY,35.221911,-77.579598,37107,35.221304,-77.588391,Lenoir,28504,7755,TRUE,TRUE,
Rockingham District,,East Laurinburg,NC,28343,FOODPANTRY,34.877812,-79.674295,37153,,,Scotland,28352,,FALSE,FALSE,Richmond
Bethlehem Baptist Church,7215 Six Forks Rd.,Raleigh,NC,27615,FOODPANTRY,35.877433,-78.6455,37183,35.878749,-78.646162,Wake,27615,6160,TRUE,TRUE,
East Duplin Christian Outreach,314 North Park Street,Beulaville,NC,28518,FOODPANTRY,34.924477,-77.767826,37061,34.9245071,-77.7678885,Duplin,28518,,TRUE,TRUE,
WRAJ Outreach Ministries,604 East Wilson Street,Elm City,NC,27822,FOODPANTRY,35.803447,-77.856216,37195,35.803238,-77.855611,Wilson,27822,8792,TRUE,TRUE,
New St. Delight United Holy Ch,693 Suttontown Rd.,Mount Olive,NC,28365,FOODPANTRY,35.205196,-78.044452,37191,35.212462,-78.189597,Wayne,28365,7653,TRUE,TRUE,
Break Through Church,1100-118 Perimeter Park Dr.,Morrisville,NC,27560,FOODPANTRY,35.854342,-78.82114,37183,35.8535304,-78.8222615,Wake,27560,,TRUE,TRUE,
Darden Enlightenment Center,3812 S. Main Street,Farmville,NC,27828,AFTER SCH,35.594179,-77.588394,37147,35.595174,-77.587765,Pitt,27828,8548,TRUE,TRUE,
Armor of God Christian Church,"4051 S. Memorial Drive, Suite",Winterville,NC,28590,FOODPANTRY,35.553874,-77.405872,37147,35.554312,-77.405095,Pitt,28590,7874,TRUE,TRUE,
A Sound of Abundance,101 East Granville Street,Dunn,NC,28334,SOUP KITCH,35.315466,-78.604012,37085,35.3154724,-78.6039692,Harnett,28334,2531,TRUE,TRUE,
Believers United for Progress,1306 Fayetteville St,Durham,NC,27707,FOODPANTRY,35.978597,-78.900195,37063,35.980887,-78.8996243,Durham,27707,2326,TRUE,TRUE,
Divine Grace Fellowship,"1500 E Club Blvd, Bldg 100",Durham,NC,27701,FOODPANTRY,36.01692,-78.913085,37063,36.026755,-78.868574,Durham,27704,,FALSE,TRUE,
Iglesia Presbiteriana Emanuel,2504 N. Roxboro St.,Durham,NC,27703,FOODPANTRY,36.021596,-78.889822,37063,36.021856,-78.889504,Durham,27704,4348,FALSE,TRUE,
Ministerios Guerreros de,1800 N. Roxboro St.,Durham,NC,27701,FOODPANTRY,36.012895,-78.89096,37063,36.0129192,-78.890916,Durham,27701,1351,TRUE,TRUE,
ST. ANN CATHOLIC CHURCH,4057 HWY 70 Bus.,Clayton,NC,27520,FOODPANTRY,35.567246,-78.392775,37101,35.567068,-78.3941509,Johnston,27520,4310,TRUE,TRUE,
"Revival Deliverance Ctr, Inc",101 East Pinewood Street,Roseboro,NC,28382,FOODPANTRY,34.947528,-78.508192,37163,34.9474426,-78.5080505,Sampson,28382,8799,TRUE,TRUE,
Michael's Place,2815 Cascadilla St,Durham,NC,27704,GROUP HOME,36.025874,-78.88579,37063,36.026656,-78.886375,Durham,27704,4411,TRUE,TRUE,
Page United Methodist Soup Kit,1045 Poplar St,Aberdeen,NC,28315,SOUP KITCH,35.144305,-79.418915,37125,35.1443921,-79.418841,Moore,28315,3111,TRUE,TRUE,
Faith Gospel Tabernacle,663 Troy St,Durham,NC,27703,FOODPANTRY,35.977223,-78.882716,37063,35.9766194,-78.8832566,Durham,27703,5033,TRUE,TRUE,
Churches Outreach  Network,700 Albemarle Avenue,Greenville,NC,27834,FOODPANTRY,35.609819,-77.380204,37147,35.610424,-77.3804,Pitt,27834,3105,TRUE,TRUE,
Church of God-Sermon del Monte,6105 Fayetteville Rd.,Raleigh,NC,27603,FOODPANTRY,35.687474,-78.680835,37183,35.692841,-78.674342,Wake,27603,4817,TRUE,TRUE,
Word Harvest International,2403 Lednum Street,Durham,NC,27713,FOODPANTRY,36.028005,-78.909768,37063,36.028015,-78.9103,Durham,27705,3440,FALSE,TRUE,
Kingdom Builders Outreach,506 Bell Fork Road,Jacksonville,NC,28540,FOODPANTRY,34.754985,-77.39563,37133,34.7535691,-77.3919712,Onslow,28540,6309,TRUE,TRUE,
Rock Ministry Inc.,350 West 2nd St,Garland,NC,28441,FOODPANTRY,34.786583,-78.394803,37163,34.7899388,-78.3978544,Sampson,28441,9318,TRUE,TRUE,
Mt. Hebron Seventh Day,700 S. Pender Street,Wilson,NC,27893,FOODPANTRY,35.714265,-77.905811,37195,35.714107,-77.90618,Wilson,27893,5231,TRUE,TRUE,
Tabernacle Full Gospel,328 Airport Road,Rockingham,NC,28379,FOODPANTRY,34.955834,-79.732253,37153,34.9101557,-79.7663499,Richmond,28379,4535,TRUE,TRUE,
Feed My Sheep of Durham,519 E Main Street,Durham,NC,27703,ELDERLY NU,35.986812,-78.886742,37063,35.992094,-78.894552,Durham,27701,,FALSE,TRUE,
Greater Joy Missionary Baptist,322 Anderson Street,Rocky Mount,NC,27803,FOODPANTRY,35.925502,-77.805823,37127,35.9258215,-77.8063226,Nash,27803,4001,TRUE,TRUE,
Comunidad Cristiana Hosanna,204 Shelden Dr.,Raleigh,NC,27610,FOODPANTRY,35.741862,-78.637161,37183,35.740431,-78.637315,Wake,27610,4632,TRUE,TRUE,
Calvary Baptist Church,119 Bunch Road,Beaufort,NC,28516,FOODPANTRY,34.733477,-76.65056,37031,34.7333139,-76.6497343,Carteret,28516,8641,TRUE,TRUE,
Louisburg Group Home,29 Strange Road,Louisburg,NC,27549,GROUP HOME,36.07725,-78.226882,37069,36.0771299,-78.227211,Franklin,27549,8564,TRUE,TRUE,
Recovery Center of Durham,2203 Elmwood Ave.,Durham,NC,27707,GROUP HOME,35.98832,-78.930168,37063,35.988129,-78.930002,Durham,27707,1009,TRUE,TRUE,
Benson Area Ministerial,1204 North Johnson St,Benson,NC,27504,FOODPANTRY,35.389051,-78.536557,37101,35.3892564,-78.536453,Johnston,27504,,TRUE,TRUE,
Just A Clean House,310 Raynor St.,Durham,NC,27704,GROUP HOME,35.987528,-78.873449,37063,35.988079,-78.873041,Durham,27703,3130,FALSE,TRUE,
Bread of Life Ministries,219 Maple Avenue,Sanford,NC,27330,FOODPANTRY,35.479795,-79.172498,37105,35.4799034,-79.1724679,Lee,27330,4338,TRUE,TRUE,
Wilson Praise & Worship Church,202 Nash Street,Wilson,NC,27894,FOODPANTRY,35.940279,-77.798037,37127,35.727471,-77.9113349,Wilson,27893,,FALSE,FALSE,Nash
Mt. Sylvan United Methodist,5731 N. Roxboro Rd.,Durham,NC,27712,BP,36.093751,-78.910362,37063,36.0989191,-78.9100908,Durham,27712,,TRUE,TRUE,
Wesleyan Methodist Church,3119 Brenda Lane,Spies,NC,27325,FOODPANTRY,35.424151,-79.68395,37123,35.4241277,-79.6840002,Moore,27325,,TRUE,FALSE,Montgomery
New Mt. Moriah United,4329 Anderson Avenue,Farmville,NC,27828,FOODPANTRY,35.585463,-77.589156,37147,35.585302,-77.591302,Pitt,27828,,TRUE,TRUE,
Cathedral  De Jesus,717 S Arendell Ave.,Zebulon,NC,27597,FOODPANTRY,35.812716,-78.306924,37183,35.813387,-78.305468,Wake,27597,8205,TRUE,TRUE,
Brown Bag Ministry,800 Lufkin Rd.,Apex,NC,27502,SUPPLEMENT,35.712314,-78.83917,37183,35.7107977,-78.8337324,Wake,27539,7050,FALSE,TRUE,
RAM Organization,2703 Holloway St.,Durham,NC,27703,AFTER SCH,35.995875,-78.897983,37063,35.9891291,-78.8515471,Durham,27703,,TRUE,TRUE,
Rocky Mount Church of the,1530 Hunter Hill Road,Rocky Mount,NC,27804,FOODPANTRY,35.973442,-77.823185,37127,35.974081,-77.823288,Nash,27804,1732,TRUE,TRUE,
The Way of the Cross Outreach,64 Craigmont Avenue,Roanoke Rapids,NC,27870,FOODPANTRY,36.447026,-77.699311,37083,36.4469519,-77.6985249,Halifax,27870,,TRUE,TRUE,
"Project Anna, Inc",120 S. Skinner Street,Greenville,NC,27834,FOODPANTRY,35.602526,-77.388011,37147,35.601931,-77.387778,Pitt,27834,3889,TRUE,TRUE,
Blue Angel Outreach,132 Poplar Street,Vass,NC,28394,FOODPANTRY,35.267942,-79.2764,37125,35.268215,-79.279382,Moore,28394,,TRUE,TRUE,
Christian Help Center,122 Depot St.,Roxboro,NC,27573,FOODPANTRY,36.393996,-78.98267,37145,36.3939,-78.982042,Person,27573,5569,TRUE,TRUE,
Glory Cloud & Fire Ministries,8800 Hwy 39 S,Zebulon,NC,27597,FOODPANTRY,35.865294,-78.267417,37183,35.866089,-78.267805,Franklin,27597,9301,TRUE,FALSE,Wake
"Glad Tiding Church, Inc./DUMA",319 Broad Street,Dunn,NC,28334,FOODPANTRY,35.309952,-78.613106,37085,35.3067701,-78.6076645,Harnett,28334,4922,TRUE,TRUE,
Baker Family Ministries,200 West Battleboro Avenue,Battleboro,NC,27890,FOODPANTRY,36.047603,-77.747883,37065,36.050271,-77.749467,Nash,27809,,FALSE,FALSE,Edgecombe
Just For Us,807 S. Duke St.,Durham,NC,27701,OTHER,35.991478,-78.908813,37063,35.990276,-78.908175,Durham,27701,,TRUE,TRUE,
St. John's Emergency Food,13241 Mc Laurin St,Gibson,NC,28343,FOODPANTRY,34.757707,-79.613611,37165,34.757596,-79.612832,Scotland,28343,,TRUE,TRUE,
Kenly Church of God,8641 St. Mary's Church Road,Kenly,NC,27542,FOODPANTRY,35.599274,-78.118073,37101,35.62183,-78.100997,Wilson,27542,,TRUE,FALSE,Johnston
The Word Became Flesh,1401 Goldsboro Street,Wilson,NC,27894,FOODPANTRY,35.712664,-77.924872,37195,35.7126125,-77.9248907,Wilson,27893,5820,FALSE,TRUE,
Agape Buchanan Featherstone,1505 Woodlawn St,Laurinburg,NC,28352,FOODPANTRY,34.756063,-79.467813,37165,34.755797,-79.4681669,Scotland,28352,5060,TRUE,TRUE,
The Rising Sun Church of,2021 US 401 South,Lillington,NC,27546-6817,FOODPANTRY,35.368068,-78.80834,37085,35.4228211,-78.8117016,Harnett,27546,,FALSE,TRUE,
Twilight Missionary Baptist,1781 Aurelian Springs Road,Weldon,NC,27839,FOODPANTRY,36.385788,-77.639211,37083,36.3852939,-77.6397943,Halifax,27839,,TRUE,TRUE,
Right Start,516 Union Church Rd,Carthage,NC,28327,FOODPANTRY,35.343777,-79.380801,37125,35.343542,-79.380518,Moore,28327,7648,TRUE,TRUE,
first Missionary Baptist,315 S. Gaines Street,Southern Pines,NC,28387,FOODPANTRY,35.181802,-79.403498,37125,35.181585,-79.403668,Moore,28387,4533,TRUE,TRUE,
Orange County Disability,503 W. Franklin Street  #113,Chapel Hill,NC,27514,DISABLED,35.916241,-79.047942,37135,35.909628,-79.063404,Orange,27516,,FALSE,TRUE,
New Opportunities 2nd Chance,1005 Broad Street,Durham,NC,27702,FOODPANTRY,36.013623,-78.91945,37063,36.013986,-78.919709,Durham,27705,4143,FALSE,TRUE,
London Missionary Baptist,3386 US HWY 158,Roanoke Rapids,NC,27870,FOODPANTRY,36.449353,-77.726427,37083,36.4537329,-77.7950779,Halifax,27870,,TRUE,TRUE,
Helping Hands of Hamlet,609 Cheraw Road,Hamlet,NC,28345,FOODPANTRY,34.877795,-79.724973,37153,34.8796678,-79.7233913,Richmond,28345,,TRUE,TRUE,
Achievement Academy of Durham,400 W. Main St Suite 103,Durham,NC,27701,AFTER SCH,35.996966,-78.904181,37063,35.9976154,-78.9043071,Durham,27701,,TRUE,TRUE,
Spring Hill Baptist,24220 Main Street,Wagram,NC,28396,FOODPANTRY,34.88578,-79.368019,37165,34.886154,-79.367839,Scotland,28396,,TRUE,TRUE,
Salvation Army Carteret Co,1700 Arendell Street,Morehead City,NC,28557,FOODPANTRY,34.722425,-76.725453,37031,34.7230164,-76.7256983,Carteret,28557,4040,TRUE,TRUE,
First Baptist Church of,202 South Fourth Street,Smithfield,NC,27577,SOUP KITCH,35.509359,-78.345405,37101,35.509133,-78.345982,Johnston,27577,4554,TRUE,TRUE,
Spirit of Life Kings Kids,317 Orange Street,Henderson,NC,27536,DAY CARE,36.326504,-78.406672,37181,36.32599,-78.406334,Vance,27536,4203,TRUE,TRUE,
The Storehouse Pantry,3114 Bridges Street,Morehead City,NC,28557,FOODPANTRY,34.727345,-76.745707,37031,34.727747,-76.745958,Carteret,28557,3242,TRUE,TRUE,
The Memorial Baptist Church,1510 Greenville Blvd. SE,Greenville,NC,27858,FOODPANTRY,35.589728,-77.350309,37147,35.588214,-77.348866,Pitt,27858,4743,TRUE,TRUE,
New Destiny Outreach,990 Cox Avenue,Rocky Mount,NC,27801,FOODPANTRY,35.949274,-77.745776,37065,35.949375,-77.747102,Edgecombe,27801,3742,TRUE,TRUE,
New Christian Food Pantry &,111 Douglas Street,Wilson,NC,27893,FOODPANTRY,35.723993,-77.909458,37195,35.7245843,-77.9088124,Wilson,27893,4165,TRUE,TRUE,
Pamlico County Fishes & Loaves,1149 White Farm Road,Oriental,NC,28571,FOODPANTRY,35.046719,-76.682123,37137,35.045794,-76.680025,Pamlico,28571,9811,TRUE,TRUE,
St Paul Lutheran,311 Marlboro Street,Hamlet,NC,28345,FOODPANTRY,34.890041,-79.707031,37153,34.8895468,-79.7079557,Richmond,28345,2446,TRUE,TRUE,
Ark Of Safety Outreach,612 Gary Street,Durham,NC,27703,FOODPANTRY,35.990766,-78.870578,37063,35.990951,-78.870125,Durham,27703,2202,TRUE,TRUE,
Mineral Springs Improvement,122 Railroad Street,Ellerbe,NC,28338,AFTER SCH,35.065613,-79.760749,37153,35.066659,-79.760575,Richmond,28379,,FALSE,TRUE,
Church Community Services,108 Gill St,Laurinburg,NC,28352,FOODPANTRY,34.777964,-79.462655,37165,34.7779739,-79.4627191,Scotland,28352,3055,TRUE,TRUE,
My Father's House,543 Richardson Road,Enfield,NC,27823,FOODPANTRY,36.236318,-77.873608,37083,36.2362813,-77.8736779,Halifax,27823,,TRUE,TRUE,
Emmanuel Hispanic Pentecostal,3603 Bastion lane suite 101,Raleigh,NC,27604,FOODPANTRY,35.79779,-78.584953,37183,35.7980342,-78.5858024,Wake,27604,7411,TRUE,TRUE,
Pullen Memorial Baptist Church,1801 Hillsborough St.,Raleigh,NC,27605,SUPPLEMENT,35.785402,-78.660645,37183,35.7851212,-78.6609256,Wake,27605,1664,TRUE,TRUE,
Alliance Rehabilitative Care,560 Dabney Drive,Henderson,NC,27536,OTHER,36.324934,-78.421874,37181,36.325526,-78.422287,Vance,27536,3946,TRUE,TRUE,
Potter's House Outreach Center,107 North Lee Street,Benson,NC,27504,FOODPANTRY,35.379085,-78.543701,37101,35.3790466,-78.5436388,Johnston,27504,1542,TRUE,TRUE,
Williams Grove Baptist Church,735 Rock Quarry Rd.,Raleigh,NC,27610,FOODPANTRY,35.770331,-78.619904,37183,35.7697139,-78.6181652,Wake,27610,3819,TRUE,TRUE,
New Vision Christian Church,2102 Hobbton Hwy.,Clinton,NC,28329,FOODPANTRY,35.031131,-78.327177,37163,35.0321179,-78.326594,Sampson,28328,1770,FALSE,TRUE,
Bethlehem Temple Apostolic,600 N. Roxboro Street,Durham,NC,27701,FOODPANTRY,35.997842,-78.895022,37063,35.9982896,-78.8945061,Durham,27701,,TRUE,TRUE,
Christ Deliverance Tabernacle,413 E. Pender St.,Wilson,NC,27893,FOODPANTRY,35.724958,-77.903359,37195,35.725474,-77.903387,Wilson,27893,4241,TRUE,TRUE,
Pathway Outreach Center Inc.,311 Branch St.,Elm City,NC,27822,FOODPANTRY,35.802416,-77.861227,37195,35.802161,-77.8615077,Wilson,27822,8796,TRUE,TRUE,
Wendell United Methodist,129 N Main St.,Wendell,NC,27591,FOODPANTRY,35.783192,-78.369853,37183,35.784068,-78.370107,Wake,27591,,TRUE,TRUE,
Community of Hope Ministries,601 St. Mary's Street,Garner,NC,27529,FOODPANTRY,35.704103,-78.613901,37183,35.7031605,-78.6140467,Wake,27529,3803,TRUE,TRUE,
Zion Christian Center,2850 Virgilina Road,Roxboro,NC,27574,FOODPANTRY,36.421755,-78.93406,37145,36.4265971,-78.9270525,Person,27574,,TRUE,TRUE,
Partners For Youth Opportunity,1309 Halley Street,Durham,NC,27707,AFTER SCH,35.98935,-78.919107,37063,35.9893979,-78.9197121,Durham,27707,,TRUE,TRUE,
Kitrell Shiloh Missionary,1390 S. Chavis Road,Kitrell,NC,27544,FOODPANTRY,36.224143,-78.413249,37181,36.1987664,-78.4340255,Vance,27544,9380,TRUE,TRUE,
St. Paul's Episcopal Church,401 East Fourth Street,Greenville,NC,27858,FOODPANTRY,35.611568,-77.369094,37147,35.6120237,-77.3704762,Pitt,27858,1916,TRUE,TRUE,
Family Circle Elder Care,820 W Garner Rd.,Garner,NC,27529,ELDERLY NU,35.711355,-78.614096,37183,35.711557,-78.613586,Wake,27529,3117,TRUE,TRUE,
Milagros y Maravillas de Dios,711 West Noble,Selma,NC,27576,FOODPANTRY,35.537244,-78.29143,37101,35.537344,-78.292008,Johnston,27576,2430,TRUE,TRUE,
God's Vision Ministries,315 East River Rd,Louisburg,NC,27549,FOODPANTRY,36.091667,-78.276772,37069,36.092203,-78.276781,Franklin,27549,7359,TRUE,TRUE,
Saint Luke United Methodist,1501 Turnpike Road,Laurinburg,NC,28352,FOODPANTRY,34.77838,-79.485726,37165,34.749327,-79.496967,Scotland,28352,9032,TRUE,TRUE,
Jackson Grove Bible Church of,66 Sinclair Lake Rd.,Newton Grove,NC,28366,FOODPANTRY,35.15838,-78.468106,37163,35.158035,-78.467865,Sampson,28366,6708,TRUE,TRUE,
Word of God Christian Center,3650 Neuse Blvd.,New Bern,NC,28562,FOODPANTRY,35.124562,-77.085808,37049,35.1385672,-77.0994805,Craven,28560,4089,FALSE,TRUE,
New Horizons,confidential,Hamlet,NC,NA,SHELTER,NA,NA,NA,,,,,,FALSE,,
FTHOP,700 S Mangum St,Durham,NC,27701,ELDERLY NU,35.989366,-78.90338,37063,35.9894292,-78.9034169,Durham,27701,,TRUE,TRUE,
"Ministerio Bethel, Inc",622 Bragg St,Sanford,NC,27330,FOODPANTRY,35.480554,-79.158385,37105,35.479362,-79.158014,Lee,27330,4648,TRUE,TRUE,
Unionville Missionary Baptist,19400 Blakley Rd.,Laurinburg,NC,28352,FOODPANTRY,34.827359,-79.39421,37165,34.8297359,-79.394056,Scotland,28352,,TRUE,TRUE,
Victory Deliverance Church of,169 5th Street,Hamlet,NC,28345,FOODPANTRY,34.885009,-79.681948,37153,34.882705,-79.6848,Richmond,28345,8114,TRUE,TRUE,
DD-Henderson Towers Resident,807 S. Duke Street #010,Durham,NC,27701,FOODPANTRY,35.991478,-78.908813,37063,35.990276,-78.908175,Durham,27701,,TRUE,TRUE,
Jerusalem United Methodist,1661 Jerusalem Road,Laurinburg,NC,28352,FOODPANTRY,34.703089,-79.465504,37165,34.7044128,-79.4555206,Scotland,28352,,TRUE,TRUE,
Safe Haven of Person County,119 S. Main Street,Roxboro,NC,27573,SHELTER,36.38243,-78.987759,37145,36.3929098,-78.9844054,Person,27573,,TRUE,TRUE,
Salvation Army of Lee County,507 N. Steele St.,Sanford,NC,27330,FOODPANTRY,35.485754,-79.183473,37105,35.4860134,-79.1839825,Lee,27330,,TRUE,TRUE,
The Healing Place of Wake,3304 Glen Royal Rd,Raleigh,NC,27603,SHELTER,35.745121,-78.668397,37183,35.882651,-78.750489,Wake,27617,,FALSE,TRUE,
Freedom House Durham,104 New Stateside Drive,Chapel Hill,NC,27516,GROUP HOME,35.955719,-79.060214,37135,35.9558929,-79.0603042,Orange,27516,,TRUE,TRUE,
Pine Grove Baptist Church,1624 NC-56,Creedmoor,NC,27522,FOODPANTRY,NA,NA,NA,36.1376951,-78.7150977,Granville,27522,,TRUE,,
Harbor Inc.,1149 Buffalo Road,Smithfield,NC,27577,SHELTER,35.524168,-78.336586,37101,35.5240777,-78.336208,Johnston,27577,,TRUE,TRUE,
New Birth Non-Denominational,4091 Lemon Springs Road,Sanford,NC,27332,FOODPANTRY,35.455935,-79.073923,37105,35.426743,-79.168237,Lee,27332,,TRUE,TRUE,
"Operation Sunshine, Inc",1328 Chestnut Street,Greenville,NC,27836,AFTER SCH,35.606245,-77.384438,37147,35.606324,-77.385247,Pitt,27834,3961,FALSE,TRUE,
Lifeline Christian Center,2872 Old Franklin Rd,Spring Hope,NC,27882,FOODPANTRY,35.983743,-78.108779,37127,35.983463,-78.109083,Nash,27882,9282,TRUE,TRUE,
Franklin County Volunteers in,109 N Church St,Louisburg,NC,27546,FOODPANTRY,35.932802,-78.441096,37183,36.100433,-78.302154,Franklin,27549,2528,FALSE,FALSE,Wake
Cedar Grove Mt. Zion AME,5124 Highway 86 North,Hillsborough,NC,27278,FOODPANTRY,36.168526,-79.131059,37135,36.1694824,-79.1324663,Orange,27278,,TRUE,TRUE,
White Oak Foundation,1621 White Oak Church Rd.,Apex,NC,27523,FOODPANTRY,35.779327,-78.919221,37183,35.7804829,-78.918971,Wake,27523,6066,TRUE,TRUE,
Maysville United Methodist Chu,804 Foy Ave,Maysville,NC,28555,FOODPANTRY,34.901493,-77.227223,37103,34.9000639,-77.227012,Jones,28555,7043,TRUE,TRUE,
"Hope of Glory Ministries, Inc","103 East Arlington Blvd.,",Greenville,NC,27858,FOODPANTRY,35.591007,-77.378167,37147,35.591191,-77.377178,Pitt,27858,5046,TRUE,TRUE,
Monarch - Cauthen Group Home,1401 Cauthen Dr.,Rockingham,NC,28379,GROUP HOME,34.921133,-79.759389,37153,34.92048,-79.755148,Richmond,28379,4873,TRUE,TRUE,
Vanceboro Group Home - Monarch,143 James Street,Vanceboro,NC,28586,GROUP HOME,35.299131,-77.149957,37049,35.299242,-77.149215,Craven,28586,9240,TRUE,TRUE,
Hoke Street Group Home,313-A Hoke Street,New Bern,NC,28560,GROUP HOME,35.073967,-77.021809,37049,35.0738569,-77.021617,Craven,28560,6633,TRUE,TRUE,
Pamlico County Group Home,554 Hwy. 306 North,Grantsboro,NC,28529,GROUP HOME,35.146737,-76.844279,37049,35.14849,-76.843762,Pamlico,28529,,TRUE,FALSE,Craven
Spencer's Place Group Home,201 9th Street,New Bern,NC,28560,GROUP HOME,35.103101,-77.072166,37049,35.1029229,-77.072647,Craven,28560,5437,TRUE,TRUE,
Monarch - Mallard Lane,142 Mallard Lane,Rockingham,NC,28379,GROUP HOME,34.932857,-79.749142,37153,34.932541,-79.747752,Richmond,28379,5200,TRUE,TRUE,
Monarch - Richmond Adult Group,190 East Church St.,Ellerbe,NC,28338,GROUP HOME,35.072911,-79.765996,37153,35.072981,-79.766058,Richmond,28338,,TRUE,TRUE,
Feed My Sheep of Durham Food,107 N. Driver Street,Durham,NC,27701,SOUP KITCH,35.992408,-78.878165,37063,35.9862546,-78.8781112,Durham,27703,,FALSE,TRUE,
First United Methodist Church,126 Park Lane,Sneads Ferry,NC,28460,MOBILE FP,34.552288,-77.393314,37133,34.554755,-77.393421,Onslow,28460,6656,TRUE,TRUE,
Emmanuel Community FWB Center,3105 Speight Seed Farm Road,Winterville,NC,28590,FOODPANTRY,35.54326,-77.480225,37147,35.5427746,-77.4800858,Pitt,28590,8775,TRUE,TRUE,
Emmanuel Fellowship Church of,336 Alston Bridge Rd.,Siler City,NC,27344,FOODPANTRY,35.719042,-79.451695,37037,35.696303,-79.381669,Chatham,27344,9566,TRUE,TRUE,
Durham First Assembly of God,1034 Hamlin Rd,Durham,NC,27704,FOODPANTRY,36.050071,-78.871172,37063,36.050007,-78.870592,Durham,27704,9655,TRUE,TRUE,
Upon This Rock Ministry,1206 College Street,Oxford,NC,27565,FOODPANTRY,36.329881,-78.592507,37077,36.329735,-78.592186,Granville,27565,2511,TRUE,TRUE,
Vanceboro Christian Help Cente,411 White Street,Vanceboro,NC,28586,FOODPANTRY,35.29843,-77.152541,37049,35.2984826,-77.1525501,Craven,28586,,TRUE,TRUE,
Rebuilding Broken Places,2105 N. William St.,Goldsboro,NC,27530,DAY CARE,35.407861,-77.983034,37191,35.4079004,-77.9829885,Wayne,27530,1437,TRUE,TRUE,
Greater Ransom Way of The Cross,90 S Lake Lodge Rd Exd,Henderson,NC,27537,FOODPANTRY,36.248069,-78.431545,37181,36.2480499,-78.4301724,Vance,27537,,TRUE,TRUE,
Our Daily Bread Christian Food,400 East Washington Street,Rockingham,NC,28379,FOODPANTRY,34.942603,-79.745784,37153,34.939416,-79.770777,Richmond,28379,3646,TRUE,TRUE,
Deliverance Church,3328 Old Stage Road,Angier,NC,27501,FOODPANTRY,35.457993,-78.691626,37085,35.457463,-78.691471,Harnett,27501,,TRUE,TRUE,
Young Memorial United Holy,1379 Brookston Rd,Henderson,NC,27537,FOODPANTRY,36.367872,-78.341255,37181,36.369443,-78.3416793,Vance,27537,7647,TRUE,TRUE,
Woodville Baptist Church,450 Hwy. 70,Bettie,NC,28516,FOODPANTRY,34.776633,-76.559521,37031,34.7182757,-76.6562604,Carteret,28516,,TRUE,TRUE,
Stanley Chapel FWB Church,687 Stanley Chapel Church Rd,Mount Olive,NC,28365,FOODPANTRY,35.224581,-78.014502,37191,35.2208877,-78.0112406,Wayne,28365,,TRUE,TRUE,
North Haven Church,6620 Six Forks Road,Raleigh,NC,27615,FOODPANTRY,35.869498,-78.639801,37183,35.8710347,-78.6408177,Wake,27615,6518,TRUE,TRUE,
An Open Door CDC,118 Booker St,Pikeville,NC,27863,FOODPANTRY,35.491124,-77.985307,37191,35.491096,-77.98231,Wayne,27863,,TRUE,TRUE,
Faith Hope Deliverance,646 Oakwood Ave,Sanford,NC,27330,FOODPANTRY,35.484001,-79.160472,37105,35.4842886,-79.1603395,Lee,27330,4549,TRUE,TRUE,
House of Refuge for Women,confidential,Durham,NC,NA,SHELTER,NA,NA,NA,,,,,,FALSE,,
Chatham County Group Homes,506 W.Fifth Street,Siler City,NC,27344,GROUP HOME,36.089875,-79.269331,37001,35.724934,-79.4710319,Chatham,27344,3053,TRUE,FALSE,Alamance
Chatham County Group Homes,323 MLK Blvd.,Siler City,NC,27344,GROUP HOME,35.734012,-79.457666,37037,35.728758,-79.461905,Chatham,27344,,TRUE,TRUE,
N.C.A. Philip Randolph Inst.,1408 Hillsborough St.,Raleigh,NC,27605,FOODPANTRY,35.783655,-78.65658,37183,35.7840848,-78.657003,Wake,27605,1829,TRUE,TRUE,
Progressive Teamwork Outreach,116 Horton St.,Zebulon,NC,27597,FOODPANTRY,35.822239,-78.312907,37183,35.821855,-78.314783,Wake,27597,2628,TRUE,TRUE,
Evergreen United Methodist,11098 US 15-501 North,Chapel Hill,NC,27517,FOODPANTRY,35.86728,-79.074236,37135,35.8410854,-79.0887359,Chatham,27517,,TRUE,FALSE,Orange
St. Julia Catholic Church,210 Harold Hart Road,Siler City,NC,27344,FOODPANTRY,35.733993,-79.377398,37037,35.734662,-79.376289,Chatham,27344,8346,TRUE,TRUE,
Greater Diggs AME Zion Church,1258 old cheraw highway,Rockingham,NC,28379,FOODPANTRY,34.881486,-79.838159,37153,34.874212,-79.842101,Richmond,28379,,TRUE,TRUE,
The Original Tabernacle of,1005 S. John St.,Goldsboro,NC,27530,SOUP KITCH,35.370019,-78.000761,37191,35.3694289,-78.001923,Wayne,27530,6449,TRUE,TRUE,
"The Arc of Moore, Inc.",673 s. Bennett,Southern Pines,NC,28387,FOODPANTRY,35.170179,-79.400597,37125,35.169853,-79.399685,Moore,28387,5919,TRUE,TRUE,
St. Paul Missionary Baptist,1151 Winstead Avenue,Rocky Mount,NC,27804,FOODPANTRY,35.983558,-77.838653,37127,35.9492055,-77.8477475,Nash,27803,1248,FALSE,TRUE,
Faith Missionary Baptist,908 Suffolk Blvd.,Raleigh,NC,27603,FOODPANTRY,35.745197,-78.659069,37183,35.7456075,-78.6584225,Wake,27603,2730,TRUE,TRUE,
Church of GOD of Prophecy,139 Flowers St.,Rockingham,NC,28379,FOODPANTRY,34.924479,-79.773413,37153,34.924152,-79.774235,Richmond,28379,5526,TRUE,TRUE,
Immanuel Temple SDA Community,2104 S. Alston Avenue,Durham,NC,27707,FOODPANTRY,35.961982,-78.887348,37063,35.961595,-78.8873909,Durham,27707,4412,TRUE,TRUE,
Zina Christian Center,3700 Bastion Lane,Raleigh,NC,27604,FOODPANTRY,35.801738,-78.580597,37183,35.799943,-78.581203,Wake,27604,3893,TRUE,TRUE,
A Touch From Above Faith,654 Main St,Wilson Mills,NC,27593,FOODPANTRY,35.582564,-78.353677,37101,35.582741,-78.353446,Johnston,27520,,FALSE,TRUE,
Roxboro Church of God,1415 N. Main Street,Roxboro,NC,27573,FOODPANTRY,36.418427,-78.969126,37145,36.4211669,-78.969119,Person,27573,4318,TRUE,TRUE,
Alliance Rehabilitative Care,940 County Home Road,Henderson,NC,27536,ADULT DAY,36.319959,-78.395896,37181,36.3200388,-78.3956191,Vance,27536,5472,TRUE,TRUE,
HighFalls United Methodist Ch.,324 Frieson Road,Highfalls,NC,27259,FOODPANTRY,35.480841,-79.517885,37125,35.4812262,-79.5182343,Moore,27325,,FALSE,TRUE,
Chatham County Group Homes,251 Lynnbrook Drive,Siler City,NC,27344,ADULT DAY,35.661265,-79.438707,37037,35.660913,-79.436795,Chatham,27344,,TRUE,TRUE,
Pilgrim Way of the Cross,316 East 16th Street,Scotland Neck,NC,27874,FOODPANTRY,36.134542,-77.416138,37083,36.1350165,-77.4168319,Halifax,27874,1708,TRUE,TRUE,
Avery Chapel FWB Church,1110 Loop Road,Raeford,NC,28376,FOODPANTRY,35.003322,-79.23398,37093,35.038733,-79.391352,Hoke,28376,7699,TRUE,TRUE,
Renu Life,501 Forest Hill Drive,Goldsboro,NC,27534,GROUP HOME,35.391509,-77.946662,37191,35.391784,-77.947241,Wayne,27534,1824,TRUE,TRUE,
Harvest Word Ministry,15199 Hwy 96 N,Zebulon,NC,27599,FOODPANTRY,35.986007,-78.449804,37069,35.779316,-78.293148,Johnston,27597,,FALSE,FALSE,Franklin
Edgerton Memorial UMC,401 W. Anderson Street,Selma,NC,27576,FOODPANTRY,35.537449,-78.286462,37101,35.537344,-78.286999,Johnston,27576,2506,TRUE,TRUE,
Praise Worship Tabernacle,1516 Bethel Rd,Raleigh,NC,27610,FOODPANTRY,35.758147,-78.565724,37183,35.757249,-78.566277,Wake,27610,4408,TRUE,TRUE,
The Light of Life Ministry,4204 Willow Oak Rd,Raleigh,NC,27610,FOODPANTRY,35.744496,-78.573999,37183,35.805034,-78.566948,Wake,27604,4731,FALSE,TRUE,
NC Love In Action,238 South Tarboro St (office),Wilson,NC,27893,FOODPANTRY,35.726916,-77.909396,37195,35.7273477,-77.9088126,Wilson,27893,4027,TRUE,TRUE,
Community Missions/New,2302 Cedar Run Place,Wilson,NC,27896,DAY CARE,35.756381,-77.932409,37195,35.756439,-77.933526,Wilson,27896,1308,TRUE,TRUE,
St. Peter Catholic Church,2700 E. 4th Street,Greenville,NC,27834,FOODPANTRY,35.615051,-77.390912,37147,35.606384,-77.3421429,Pitt,27858,1712,FALSE,TRUE,
Raleigh Vineyard Christian,6894 Litchford Rd,Raleigh,NC,27615,FOODPANTRY,35.873137,-78.596182,37183,35.8740123,-78.5952617,Wake,27615,,TRUE,TRUE,
St. Andrews Chrisitan Church,322 Rollingwood Drive,Dudley,NC,27883,FOODPANTRY,35.557549,-77.031489,37013,35.2929024,-78.0261411,Wayne,28333,8234,FALSE,FALSE,Beaufort
Chatham County Group Homes,225 E. Watkins St,Siler City,NC,27344,GROUP HOME,35.725432,-79.450517,37037,35.724358,-79.449842,Chatham,27344,3337,TRUE,TRUE,
Chatham County Group Homes,400 Carolina Ave,Siler City,NC,27344,GROUP HOME,35.880787,-80.068849,37057,35.722223,-79.475986,Chatham,27344,3060,TRUE,FALSE,Davidson
St. Paul Church of Christ,4009 Lake Wilson Rd.,Wilson,NC,27896,FOODPANTRY,35.775816,-77.936322,37195,35.776268,-77.936333,Wilson,27896,8942,TRUE,TRUE,
Prayer and Faith Temple Church,217 Thomas St,Hamlet,NC,28345,FOODPANTRY,34.879726,-79.701681,37153,34.8780144,-79.70415,Richmond,28345,3645,TRUE,TRUE,
Carthage United Methodist Ch.,108 Bruce Street,Carthage,NC,28327,FOODPANTRY,35.321103,-79.420298,37125,35.339554,-79.407054,Moore,28327,6091,TRUE,TRUE,
Southern Pines UMC,175 Midland Road,Southern Pines,NC,28387,FOODPANTRY,35.008218,-78.335371,37163,35.181631,-79.380543,Moore,28387,3311,TRUE,FALSE,Sampson
First United Methodist Church,101 W. Church Street,Laurinburg,NC,28352,FOODPANTRY,35.008218,-78.335371,37163,34.773626,-79.464003,Scotland,28352,,TRUE,FALSE,Sampson
Samaritan's Shelf,143 Short Johnson Road,Clayton,NC,27520,FOODPANTRY,35.681223,-78.50297,37101,35.6334419,-78.492111,Johnston,27520,7776,TRUE,TRUE,
Richlands Community Outreach,8701 Richlands Highway,Richlands,NC,28574,FOODPANTRY,35.390077,-77.665123,37079,34.9014699,-77.5528233,Onslow,28574,,TRUE,FALSE,Greene
With Love From Jesus Ministry,421 Chapanoke Road,Raleigh,NC,27603,FOODPANTRY,35.815801,-78.683186,37183,35.7346125,-78.6539845,Wake,27603,3428,TRUE,TRUE,
Fuquay-Varina Emergency,216 West Academy Street,Fuquay-Varina,NC,27526,FOODPANTRY,36.318364,-78.586416,37077,35.5845374,-78.8014109,Wake,27526,,TRUE,FALSE,Granville
New Life Deliverance Ministry,103 East Main Street,Benson,NC,27504,FOODPANTRY,36.318364,-78.586416,37077,35.38142,-78.547404,Johnston,27504,1506,TRUE,FALSE,Granville
Monarch- Seawell,108 Seawell Street,Sanford,NC,27330,GROUP HOME,35.466588,-79.109155,37105,35.4483853,-79.1466382,Lee,27332,6220,FALSE,TRUE,
Fellowship of Christ Church,1001 Tarboro St,Rocky Mount,NC,27801,GROUP HOME,35.943655,-77.792892,37065,35.932788,-77.783882,Edgecombe,27801,5963,TRUE,TRUE,
Seed Time&Harvest Fellowship,804 Berwyn Avenue,Durham,NC,27704,FOODPANTRY,36.057545,-78.92222,37063,36.032964,-78.880457,Durham,27704,3338,TRUE,TRUE,
Angier Area Food Pantry,61 N Raleigh St,Angier,NC,27501,FOODPANTRY,36.318364,-78.586416,37077,35.508101,-78.7410979,Harnett,27501,6679,TRUE,FALSE,Granville
S.A.F.E. of Harnett County,Confidential,,NC,NA,SHELTER,NA,NA,NA,,,,,,FALSE,,
Power of Praise Tabernacle,1100 S Market St.,Benson,NC,27504,FOODPANTRY,36.318364,-78.586416,37077,35.369522,-78.5528099,Johnston,27504,2151,TRUE,FALSE,Granville
Living Bread Holiness Church,1116 Glenburnie Road,New Bern,NC,28561,FOODPANTRY,35.390077,-77.665123,37079,35.1259587,-77.0852166,Craven,28562,,FALSE,FALSE,Greene
Adult Day Health Activity Ctr.,841 Fairview Road,Rocky Mount,NC,27802,ELDERLY NU,36.444854,-77.223968,37131,35.9418464,-77.7752053,Edgecombe,27801,,FALSE,FALSE,Northampton
Rockingham Spanish SDA Church,136 Eason Drive,Rockingham,NC,28379,FOODPANTRY,34.927478,-79.758592,37153,34.9195629,-79.787553,Richmond,28379,,TRUE,TRUE,
Harnett Food Pantry,275 Irene Roberts Road,Lillington,NC,27546,FOODPANTRY,35.409756,-78.852929,37085,35.383045,-78.830731,Harnett,27546,8078,TRUE,TRUE,
Communities In Schools,300 Kelly Road,Pinehurst,NC,28374,OTHER,35.198871,-79.435827,37125,35.2021609,-79.467747,Moore,28374,8276,TRUE,TRUE,
Child Evangelism Fellowship,611 St. Mary's St.,Garner,NC,27529,FOODPANTRY,35.563195,-78.554856,37183,35.702899,-78.613483,Wake,27529,3803,TRUE,TRUE,
Building Hope Community Life,309 West 9th Street,Greenville,NC,27836,AFTER SCH,36.444854,-77.223968,37131,35.607257,-77.3769389,Pitt,27834,3172,FALSE,FALSE,Northampton
The Healing Place Wake County,1251 Goode Street,Raleigh,NC,27603,SHELTER,35.815801,-78.683186,37183,35.7641091,-78.658524,Wake,27603,2261,TRUE,TRUE,
Capital Pentacostal Church,1308 Hwy. 70,Garner,NC,27529,FOODPANTRY,35.563195,-78.554856,37183,35.7212823,-78.6404137,Wake,27529,,TRUE,TRUE,
Inter-Faith Council / Shelter,100 West Rosemary Street,Chapel Hill,NC,27514,SOUP KITCH,36.318364,-78.586416,37135,35.9141495,-79.056617,Orange,27516,2507,FALSE,TRUE,
Autism Services,534 Walnut Street,Cary,NC,27511,GROUP HOME,36.318364,-78.586416,37077,35.775817,-78.769518,Wake,27511,4042,TRUE,FALSE,Granville
St. Anna Freewill Baptist,11705 Old Stage Road,Willow Springs,NC,27592,FOODPANTRY,36.318364,-78.586416,37077,35.59304,-78.6900749,Wake,27592,7400,TRUE,FALSE,Granville
Alliance Rehabilitative Care,1020 County Home Road,Henderson,NC,27536,GROUP HOME,36.332499,-78.416173,37181,36.3200871,-78.3947129,Vance,27536,5474,TRUE,TRUE,
Flynn Christian Fellowship,611 Mitchell Street,Kinston,NC,28501,GROUP HOME,35.266687,-77.545991,37107,35.267497,-77.583962,Lenoir,28501,4319,TRUE,TRUE,
Brookston Baptist Church,242 Baptist Church Road,Henderson,NC,27537,FOODPANTRY,36.432124,-78.427699,37181,36.3657275,-78.3445845,Vance,27537,,TRUE,TRUE,
St. James Missionary Baptist,527 E Thomas St.,Rocky Mount,NC,27801,FOODPANTRY,35.943655,-77.792892,37065,35.941916,-77.787771,Edgecombe,27801,5452,TRUE,TRUE,
Park East Church of God,3913  McLain St.,Goldsboro,NC,27534,FOODPANTRY,35.378738,-77.896207,37191,35.3594471,-77.9264703,Wayne,27534,7117,TRUE,TRUE,
Mission Raleigh of Mt. Vernon,11610 Durant Rd.,Raleigh,NC,27615,FOODPANTRY,35.815801,-78.683186,37183,35.9118702,-78.6073176,Wake,27614,9756,FALSE,TRUE,
"Meals on Wheels of Durham, Inc",2522 Ross Rd.,Durham,NC,27703,SUPPLEMENT,36.057545,-78.92222,37063,35.9918929,-78.8546519,Durham,27703,2410,TRUE,TRUE,
Fisher Memorial,420 East Piedmont Avenue,Durham,NC,27707,FOODPANTRY,36.057545,-78.92222,37063,35.9840776,-78.8997347,Durham,27707,1832,TRUE,TRUE,
Western Assembly Church of,1921 Barefoot Road,Newton Grove,NC,28366,FOODPANTRY,35.008218,-78.335371,37163,35.30454,-78.3997179,Johnston,28366,9686,TRUE,FALSE,Sampson
Steps and Ladders,1914 Taylor Street,Durham,NC,27703,DAY CARE,36.057545,-78.92222,37063,35.988582,-78.877063,Durham,27703,3149,TRUE,TRUE,
